Name,State,City,Zip,Type,Image,Ranking,ACT,AidPercentage,AcceptanceRate,Fees,GPAAvg,Enrollment,SATAvg,SATRange,ACTRange,YearFounded,AcademicCalendar,Setting,SchoolWebsite
Princeton University,NJ,Princeton,8544,private,https://www.usnews.com/dims4/USNEWS/f7b3088/17177859217/thumbnail/200x150/quality/85/?url=https%3A%2F%2Fmedia.beam.usnews.com%2F4a%2Fde%2Fe754e2714cae81f92edb1c7b273d%2F190827princeton-university23.jpg,1,32,61,5,51870,3.9,5428,1440,1440-1570,32-35,1746,Semester,Suburban,http://www.princeton.edu
Harvard University,MA,Cambridge,2138,private,https://www.usnews.com/dims4/USNEWS/41d5f91/17177859217/thumbnail/200x150/quality/85/?url=https%3A%2F%2Fmedia.beam.usnews.com%2F65%2F09a2103d862fb8eb15a9a6542c080b%2Fcollege-photo_8866.jpg,2,33,55,5,51925,4,6788,1460,1460-1580,33-35,1636,Semester,Urban,http://www.harvard.edu/
Massachusetts Institute of Technology,MA,Cambridge,2139,private,https://www.usnews.com/dims4/USNEWS/7387a62/17177859217/thumbnail/200x150/quality/85/?url=https%3A%2F%2Fmedia.beam.usnews.com%2Fa8%2Fc5193da7eb9dcbd26e794c018ac87a%2Fcollege-photo_6935.jpg,3,34,60,7,53790,,4602,1500,1500-1570,34-36,1861,Unknown,Urban,http://web.mit.edu/
Columbia University,NY,New York,10027,private,https://www.usnews.com/dims4/USNEWS/2a6cd5c/17177859217/thumbnail/200x150/quality/85/?url=https%3A%2F%2Fmedia.beam.usnews.com%2F1d%2F422774361a22d50cb6230e30fbeb84%2Fcollege-photo_36142.jpg,3,33,50,6,61850,,6202,1450,1450-1560,33-35,1754,Semester,Urban,http://www.columbia.edu
Yale University,CT,New Haven,6520,private,https://www.usnews.com/dims4/USNEWS/fd89007/17177859217/thumbnail/200x150/quality/85/?url=https%3A%2F%2Fmedia.beam.usnews.com%2F8f%2Ff7526019804e07ae828f06b89df8c0%2Fcollege-photo_8737.jpg,3,33,53,6,55500,,5964,1450,1450-1560,33-35,1701,Semester,City,http://www.yale.edu/
Stanford University,CA,Stanford,94305,private,https://www.usnews.com/dims4/USNEWS/1b44b84/17177859217/thumbnail/200x150/quality/85/?url=https%3A%2F%2Fmedia.beam.usnews.com%2F6d%2Fc497d367e3b5da44ac673b8f9dfbbf%2Fcollege-photo_10369.jpg,6,32,48,4,53529,3.9,7087,1420,1420-1570,32-35,1885,Quarter,Suburban,http://www.stanford.edu
University of Chicago,IL,Chicago,60637,private,https://www.usnews.com/dims4/USNEWS/80f7a99/17177859217/thumbnail/200x150/quality/85/?url=https%3A%2F%2Fmedia.beam.usnews.com%2F1b%2F21b5db2ec835c2de92b9fb30131c19%2Fcollege-photo_23449.jpg,6,33,41,7,59298,,6552,1490,1490-1570,33-35,1890,Quarter,Urban,http://www.uchicago.edu
University of Pennsylvania,PA,Philadelphia,19104,private,https://www.usnews.com/dims4/USNEWS/8299dfb/17177859217/thumbnail/200x150/quality/85/?url=https%3A%2F%2Fmedia.beam.usnews.com%2F7c%2F2357eaa9bde06e03bfb80c920320a0%2Fcollege-photo_27654.jpg,6,32,46,8,57770,3.9,10183,1440,1440-1560,32-35,1740,Semester,Urban,http://www.upenn.edu
Northwestern University,IL,Evanston,60208,private,https://www.usnews.com/dims4/USNEWS/0dfe5bf/17177859217/thumbnail/200x150/quality/85/?url=https%3A%2F%2Fmedia.beam.usnews.com%2F1b%2F883eda3cecf9310213504704f8e6f5%2Fcollege-photo_34282.jpg,9,33,45,8,56691,,8231,1430,1430-1550,33-35,1851,Quarter,Suburban,http://www.northwestern.edu
Duke University,NC,Durham,27708,private,https://www.usnews.com/dims4/USNEWS/6cc3dc9/17177859217/thumbnail/200x150/quality/85/?url=https%3A%2F%2Fmedia.beam.usnews.com%2F25%2F2d774e6ec10d6ad447ab9c8f3bbd63%2Fcollege-photo_35613.jpg,10,33,44,9,58198,,6682,1450,1450-1570,33-35,1838,Semester,Suburban,http://www.duke.edu/
Johns Hopkins University,MD,Baltimore,21218,private,https://www.usnews.com/dims4/USNEWS/8f6faba/17177859217/thumbnail/200x150/quality/85/?url=https%3A%2F%2Fmedia.beam.usnews.com%2F16%2Fd110e9e042d0e4bd05b155b1be212b%2Fcollege-photo_9422.jpg,10,33,52,11,55350,3.9,6064,1470,1470-1560,33-35,1876,Semester,Urban,http://www.jhu.edu
California Institute of Technology,CA,Pasadena,91125,private,https://www.usnews.com/dims4/USNEWS/cefe4af/17177859217/thumbnail/200x150/quality/85/?url=https%3A%2F%2Fmedia.beam.usnews.com%2F36%2Fb2a8b47dd2d1a501ad2f9a8338118e%2Fcollege-photo_34898.jpg,12,35,53,7,54600,,948,1530,1530-1580,35-36,1891,Quarter,Suburban,http://www.caltech.edu
Dartmouth College,NH,Hanover,3755,private,https://www.usnews.com/dims4/USNEWS/dd99b75/17177859217/thumbnail/200x150/quality/85/?url=https%3A%2F%2Fmedia.beam.usnews.com%2F2e%2F78bc83f90d949c3e6286102d6dde3e%2Fcollege-photo_33512.jpg,12,31,49,9,57204,,4417,1420,1420-1560,31-35,1769,Quarter,Rural,http://www.dartmouth.edu
Brown University,RI,Providence,2912,private,https://www.usnews.com/dims4/USNEWS/ba8c31b/17177859217/thumbnail/200x150/quality/85/?url=https%3A%2F%2Fmedia.beam.usnews.com%2F21%2Ff608d436bc6e26934f70036b23e1bb%2Fcollege-photo_26074.jpg,14,32,41,8,58504,,7043,1420,1420-1550,32-35,1764,Semester,City,https://www.brown.edu/admission/undergraduate/
University of Notre Dame,IN,Notre Dame,46556,private,https://www.usnews.com/dims4/USNEWS/1dd41e6/17177859217/thumbnail/200x150/quality/85/?url=https%3A%2F%2Fmedia.beam.usnews.com%2F53%2Ffff707d9cd1e8e4d55454e57f6c8b7%2Fcollege-photo_154.jpg,15,33,47,18,55553,,8617,1400,1400-1550,33-35,1842,Semester,City,http://www.nd.edu
Vanderbilt University,TN,Nashville,37240,private,https://www.usnews.com/dims4/USNEWS/d622ae7/17177859217/thumbnail/200x150/quality/85/?url=https%3A%2F%2Fmedia.beam.usnews.com%2F8c%2F430f3ff9ef5d24a6321b73d987d3e2%2Fcollege-photo_313.jpg,15,33,49,10,52070,3.8,6861,1450,1450-1560,33-35,1873,Semester,Urban,http://www.vanderbilt.edu
Cornell University,NY,Ithaca,14853,private,https://www.usnews.com/dims4/USNEWS/0a46cc9/17177859217/thumbnail/200x150/quality/85/?url=https%3A%2F%2Fmedia.beam.usnews.com%2F59%2F0dd395ffda36a08c792a2b32303c7b%2Fcollege-photo_73.jpg,17,32,46,11,57222,,15182,1390,1390-1540,32-34,1865,Semester,Rural,http://www.cornell.edu
Rice University,TX,Houston,77251,private,https://www.usnews.com/dims4/USNEWS/e21518f/17177859217/thumbnail/200x150/quality/85/?url=https%3A%2F%2Fmedia.beam.usnews.com%2Fe4%2F61d9cccbee2c7fea77213314cf2440%2Fcollege-photo_5187.jpg,17,33,39,11,49112,,3992,1450,1450-1560,33-35,1912,Semester,Urban,http://www.rice.edu
Washington University in St. Louis,MO,St. Louis,63130,private,https://www.usnews.com/dims4/USNEWS/a4fc7a0/17177859217/thumbnail/200x150/quality/85/?url=https%3A%2F%2Fmedia.beam.usnews.com%2Fed%2Fc2e58f47b4fdb736d60272603fe81f%2Fcollege-photo_826.jpg,19,32,41,15,55292,,7751,1470,1470-1570,32-35,1853,Semester,Suburban,http://www.wustl.edu
University of California--Los Angeles,CA,Los Angeles,90095,public,https://www.usnews.com/dims4/USNEWS/9b08230/17177859217/thumbnail/200x150/quality/85/?url=https%3A%2F%2Fmedia.beam.usnews.com%2Fa5%2Fc739f4b5f9b9473ecf5578abf290bc%2Fcollege-photo_5632.jpg,20,28,14,14,42218,3.9,31577,1270,1270-1520,28-34,1919,Quarter,Urban,http://www.ucla.edu/
Emory University,GA,Atlanta,30322,private,https://www.usnews.com/dims4/USNEWS/0ca478e/17177859217/thumbnail/200x150/quality/85/?url=https%3A%2F%2Fmedia.beam.usnews.com%2Ff8%2F56795a274c65bd479f879fb22b191a%2Femory-wall.jpg,21,31,45,19,53804,3.8,7086,1350,1350-1520,31-34,1836,Semester,City,http://www.emory.edu
University of California--Berkeley,CA,Berkeley,94720,public,https://www.usnews.com/dims4/USNEWS/a4bc43d/17177859217/thumbnail/200x150/quality/85/?url=https%3A%2F%2Fmedia.beam.usnews.com%2Fde%2F0d94d5e7c41f245912bce74f83a846%2Fcollege-photo_2013.jpg,22,28,12,15,43176,3.9,30853,1300,1300-1530,28-34,1868,Semester,City,//www.berkeley.edu
University of Southern California,CA,Los Angeles,90089,private,https://www.usnews.com/dims4/USNEWS/1716f37/17177859217/thumbnail/200x150/quality/85/?url=https%3A%2F%2Fmedia.beam.usnews.com%2Fd9%2Feab50c4d7d394ddf2eafc05777c45f%2Fcollege-photo_11618.jpg,22,30,34,13,58195,3.8,19907,1350,1350-1530,30-34,1880,Semester,Urban,http://www.usc.edu/
Georgetown University,DC,Washington,20057,private,https://www.usnews.com/dims4/USNEWS/7b45a5f/17177859217/thumbnail/200x150/quality/85/?url=https%3A%2F%2Fmedia.beam.usnews.com%2F12%2Fc35d6d7be388e893723c293388c519%2Fcollege-photo_27270.jpg,24,31,36,15,56058,,7459,1370,1370-1530,31-34,1789,Semester,Urban,http://www.georgetown.edu
Carnegie Mellon University,PA,Pittsburgh,15213,private,https://www.usnews.com/dims4/USNEWS/5d5888b/17177859217/thumbnail/200x150/quality/85/?url=https%3A%2F%2Fmedia.beam.usnews.com%2Fc7%2F5cc4f10c79126ea2a09bd2c7bebf75%2Fcollege-photo_33151.jpg,25,33,38,17,57119,3.8,6947,1450,1450-1550,33-35,1900,Semester,Urban,http://www.cmu.edu
University of Michigan--Ann Arbor,MI,Ann Arbor,48109,public,https://www.usnews.com/dims4/USNEWS/01277f1/17177859217/thumbnail/200x150/quality/85/?url=https%3A%2F%2Fmedia.beam.usnews.com%2F90%2F363ccab41098d16654b58fde153832%2Fcollege-photo_25610.jpg,25,30,28,23,51200,3.9,30318,1330,1330-1510,30-34,1817,Trimester,City,//umich.edu
Wake Forest University,NC,Winston-Salem,27109,private,https://www.usnews.com/dims4/USNEWS/786c4b0/17177859217/thumbnail/200x150/quality/85/?url=https%3A%2F%2Fmedia.beam.usnews.com%2F96%2F20796e235018f451de8f0451e43f33%2Fcollege-photo_11989.jpg,27,29,29,29,55440,,5225,1310,1310-1470,29-33,1834,Semester,Suburban,http://www.wfu.edu
University of Virginia,VA,Charlottesville,22904,public,https://www.usnews.com/dims4/USNEWS/2975b17/17177859217/thumbnail/200x150/quality/85/?url=https%3A%2F%2Fmedia.beam.usnews.com%2Fcd%2Fc4797df7ab3ec18213c260c5a64502%2Fcollege-photo_2352.jpg,28,30,31,26,50920,4,16777,1330,1330-1500,30-34,1819,Semester,Suburban,http://www.virginia.edu
Georgia Institute of Technology,GA,Atlanta,30332,public,https://www.usnews.com/dims4/USNEWS/fd610f1/17177859217/thumbnail/200x150/quality/85/?url=https%3A%2F%2Fmedia.beam.usnews.com%2Fb7%2F3d7674f4887a909f520eb9c4d17fd1%2F16NE10500-P1-018-h.jpg,29,31,19,23,33794,4,16049,1390,1390-1540,31-34,1885,Semester,Urban,http://admission.gatech.edu
New York University,NY,New York,10012,private,https://www.usnews.com/dims4/USNEWS/7fa3ef5/17177859217/thumbnail/200x150/quality/85/?url=https%3A%2F%2Fmedia.beam.usnews.com%2F6b%2F4bad241338efa4bc9c9310b57112f6%2Fcollege-photo_6426.jpg,29,29,45,20,53308,3.6,26733,1310,1310-1510,29-34,1831,Semester,Urban,http://www.nyu.edu
Tufts University,MA,Medford,2155,private,https://www.usnews.com/dims4/USNEWS/f121cf1/17177859217/thumbnail/200x150/quality/85/?url=https%3A%2F%2Fmedia.beam.usnews.com%2F60%2F6e00b7a3707b65cf2a7fcf38ead436%2Fcollege-photo_8428.jpg,29,31,34,15,58578,,5643,1380,1380-1530,31-34,1852,Semester,Suburban,http://www.tufts.edu
University of North Carolina--Chapel Hill,NC,Chapel Hill,27599,public,https://www.usnews.com/dims4/USNEWS/e86b41a/17177859217/thumbnail/200x150/quality/85/?url=https%3A%2F%2Fmedia.beam.usnews.com%2Fc4%2F491d7fb9c085fb4b302accdd6f0a4a%2Fcollege-photo_2832.jpg,29,27,39,22,36222,,19117,1270,1270-1470,27-33,1789,Semester,Suburban,http://www.unc.edu
University of Rochester,NY,Rochester,14627,private,https://www.usnews.com/dims4/USNEWS/8b755db/17177859217/thumbnail/200x150/quality/85/?url=https%3A%2F%2Fmedia.beam.usnews.com%2F27%2F20d59c29226d1cb2e0b5e78fe99ce9%2Fcollege-photo_2965.jpg,29,30,54,29,56026,,6535,1320,1320-1500,30-34,1855,Semester,Suburban,http://www.tcnj.edu
University of California--Santa Barbara,CA,Santa Barbara,93106,public,https://www.usnews.com/dims4/USNEWS/d4db86b/17177859217/thumbnail/200x150/quality/85/?url=https%3A%2F%2Fmedia.beam.usnews.com%2F13%2F975f931d5bf105fd4c372243ea494b%2FUC-Santa-Barbara-_49A3469-web.jpg,34,26,6,32,43383,4,23070,1230,1230-1480,26-32,1909,Quarter,Suburban,https://www.ucsb.edu/
University of Florida,FL,Gainesville,32611,public,https://www.usnews.com/dims4/USNEWS/6d67236/17177859217/thumbnail/200x150/quality/85/?url=https%3A%2F%2Fmedia.beam.usnews.com%2F37%2F7a0b350c5817d691916a1f58e84fb9%2Fcollege-photo_33594.jpg,34,27,17,39,28658,4,35491,1280,1280-1440,27-32,1853,Semester,Suburban,http://www.ufl.edu
University of California--Irvine,CA,Irvine,92697,public,https://www.usnews.com/dims4/USNEWS/95bcd22/17177859217/thumbnail/200x150/quality/85/?url=https%3A%2F%2Fmedia.beam.usnews.com%2F7c%2Ff4ad1159ac936f2c8e95c998eefd32%2FUCI_Greg_Student_Center-9.jpg,36,,4,29,43481,4,29736,1180,1180-1440,N/A,1965,Quarter,Suburban,http://www.uci.edu
University of California--San Diego,CA,La Jolla,92093,public,https://www.usnews.com/dims4/USNEWS/461464f/17177859217/thumbnail/200x150/quality/85/?url=https%3A%2F%2Fmedia.beam.usnews.com%2F8e%2F30bc9db5b245b89c5d9063acd2ceb4%2Fcollege-photo_19990.jpg,37,26,5,30,43162,4,30285,1250,1250-1470,26-33,1960,Quarter,Urban,http://www.ucsd.edu/
Boston College,MA,Chestnut Hill,2467,private,https://www.usnews.com/dims4/USNEWS/6bd0856/17177859217/thumbnail/200x150/quality/85/?url=https%3A%2F%2Fmedia.beam.usnews.com%2F6e%2Fd8a881f19b211928f27b07fa3171de%2Fcollege-photo_16949.jpg,37,31,37,28,57910,,9377,1320,1320-1490,31-34,1863,Semester,Suburban,http://www.bc.edu
University of California--Davis,CA,Davis,95616,public,https://www.usnews.com/dims4/USNEWS/ac2f008/17177859217/thumbnail/200x150/quality/85/?url=https%3A%2F%2Fmedia.beam.usnews.com%2F0c%2Fec8a2b1ae32ba1d7937497c0fea02e%2Fcollege-photo_35047.jpg,39,25,6,41,43484,,30872,1150,1150-1410,25-31,1880,Semester,Rural,http://www.bridgewater.edu
Boston University,MA,Boston,2215,private,https://www.usnews.com/dims4/USNEWS/a3f93fd/17177859217/thumbnail/200x150/quality/85/?url=https%3A%2F%2Fmedia.beam.usnews.com%2Fe6%2Fc4045480c402294ee0f69f339e7593%2Fcollege-photo_34160.jpg,40,30,40,22,55892,3.7,18515,1330,1330-1500,30-33,1839,Semester,Urban,http://www.bu.edu
Brandeis University,MA,Waltham,2454,private,https://www.usnews.com/dims4/USNEWS/9a9f53b/17177859217/thumbnail/200x150/quality/85/?url=https%3A%2F%2Fmedia.beam.usnews.com%2Fe5%2F06beed44e99b6b9e7dc3a001448c87%2Fcollege-photo_20366.jpg,40,29,45,31,57561,3.8,3639,1280,1280-1500,29-33,1948,Semester,Suburban,http://www.brandeis.edu
Case Western Reserve University,OH,Cleveland,44106,private,https://www.usnews.com/dims4/USNEWS/c1fb754/17177859217/thumbnail/200x150/quality/85/?url=https%3A%2F%2Fmedia.beam.usnews.com%2F73%2F89297a497b68db55c95d4b31ef24ba%2Fcollege-photo_8808.jpg,40,30,46,29,50904,,5262,1350,1350-1520,30-34,1826,Semester,Urban,http://www.case.edu
College of William and Mary,VA,Williamsburg,23187,public,https://www.usnews.com/dims4/USNEWS/97be930/17177859217/thumbnail/200x150/quality/85/?url=https%3A%2F%2Fmedia.beam.usnews.com%2Fc8%2Fa5f8ea508ccac374884b1a41dbbf8f%2Fcollege-photo_29563.jpg,40,30,26,37,46283,4,6377,1310,1310-1490,30-33,1693,Semester,Suburban,http://www.wm.edu
Northeastern University,MA,Boston,2115,private,https://www.usnews.com/dims4/USNEWS/4674af4/17177859217/thumbnail/200x150/quality/85/?url=https%3A%2F%2Fmedia.beam.usnews.com%2F20%2F1cbbad31e6157f63445ad855fcdbaf%2Fcollege-photo_31421.jpg,40,32,30,19,53506,,13909,1360,1360-1540,32-34,1898,Semester,Urban,http://www.northeastern.edu/
Tulane University,LA,New Orleans,70118,private,https://www.usnews.com/dims4/USNEWS/574bcfc/17177859217/thumbnail/200x150/quality/85/?url=https%3A%2F%2Fmedia.beam.usnews.com%2Fa3%2F27198a7ba9d4c2909e318d3da75173%2Fcollege-photo_34989.jpg,40,30,31,17,56800,3.6,6773,1350,1350-1490,30-33,1834,Semester,Urban,http://www.tulane.edu
University of Wisconsin--Madison,WI,Madison,53706,public,https://www.usnews.com/dims4/USNEWS/7cfcbcf/17177859217/thumbnail/200x150/quality/85/?url=https%3A%2F%2Fmedia.beam.usnews.com%2F7a%2Ff94ebe41ae2cca4b4f0118e82c486f%2Fcollege-photo_30990.jpg,46,27,15,52,37785,3.9,32648,1300,1300-1480,27-32,1848,Semester,City,http://www.wisc.edu
Villanova University,PA,Villanova,19085,private,https://www.usnews.com/dims4/USNEWS/95da060/17177859217/thumbnail/200x150/quality/85/?url=https%3A%2F%2Fmedia.beam.usnews.com%2Fac%2Fc5781ac26261fc6a4d9fa9a8477ddd%2Fcollege-photo_35418.jpg,46,30,43,29,55430,3.9,6917,1300,1300-1470,30-33,1842,Semester,Suburban,http://www.villanova.edu
University of Illinois--Urbana-Champaign,IL,Champaign,61820,public,https://www.usnews.com/dims4/USNEWS/9601d6d/17177859217/thumbnail/200x150/quality/85/?url=https%3A%2F%2Fmedia.beam.usnews.com%2F0a%2F05aead8111896ca3aba4bff3c816e3%2Fcollege-photo_12941.jpg,48,26,8,62,33352,,33915,1220,1220-1480,26-32,1867,Semester,City,http://illinois.edu
University of Texas--Austin,TX,Austin,78705,public,https://www.usnews.com/dims4/USNEWS/4c1f35a/17177859217/thumbnail/200x150/quality/85/?url=https%3A%2F%2Fmedia.beam.usnews.com%2Fea%2Fc51bba521211dbd1e7f6754542e180%2Fcollege-photo_26169.jpg,48,27,5,39,38228,,40804,1230,1230-1480,27-33,1883,Semester,Urban,http://www.utexas.edu
Lehigh University,PA,Bethlehem,18015,private,https://www.usnews.com/dims4/USNEWS/9f31ccb/17177859217/thumbnail/200x150/quality/85/?url=https%3A%2F%2Fmedia.beam.usnews.com%2F7b%2Fa7c6a18fa04802daacbf11bcef0d79%2Fcollege-photo_35953.jpg,50,29,40,22,55240,,5047,1270,1270-1450,29-33,1865,Semester,City,https://www1.lehigh.edu
Pepperdine University,CA,Malibu,90263,private,https://www.usnews.com/dims4/USNEWS/18c3fdb/17177859217/thumbnail/200x150/quality/85/?url=https%3A%2F%2Fmedia.beam.usnews.com%2Ffe%2Fa865facc742e3b4b4c31863dd42e82%2Fcollege-photo_6515.jpg,50,26,52,36,55892,3.7,3627,1220,1220-1420,26-32,1937,Semester,Suburban,http://www.pepperdine.edu
Rensselaer Polytechnic Institute,NY,Troy,12180,private,https://www.usnews.com/dims4/USNEWS/87b72cf/17177859217/thumbnail/200x150/quality/85/?url=https%3A%2F%2Fmedia.beam.usnews.com%2Ff7%2Fcf3e59fae56b9ace846d167b8a2480%2Fcollege-photo_3861.jpg,50,29,58,43,55378,3.9,6628,1330,1330-1500,29-33,1824,Semester,Suburban,http://www.rpi.edu
University of Georgia,GA,Athens,30602,public,https://www.usnews.com/dims4/USNEWS/d77c1e6/17177859217/thumbnail/200x150/quality/85/?url=https%3A%2F%2Fmedia.beam.usnews.com%2Fa9%2F59d77fa64379a3d601d963e68dadf3%2Fcollege-photo_28433.jpg,50,27,11,49,31120,4,29611,1240,1240-1410,27-32,1785,Semester,City,http://www.admissions.uga.edu
Santa Clara University,CA,Santa Clara,95053,private,https://www.usnews.com/dims4/USNEWS/f372418/17177859217/thumbnail/200x150/quality/85/?url=https%3A%2F%2Fmedia.beam.usnews.com%2F1d%2F0c731397a0bc3098617157a2159f51%2Fcollege-photo_24574.jpg,54,28,32,50,53634,3.7,5520,1270,1270-1440,28-32,1851,Differs by program,City,http://www.scu.edu
Ohio State University--Columbus,OH,Columbus,43210,public,https://www.usnews.com/dims4/USNEWS/56ddbf4/17177859217/thumbnail/200x150/quality/85/?url=https%3A%2F%2Fmedia.beam.usnews.com%2F4d%2F068670b264e2badab91987f4639cbc%2Fcollege-photo_21645.jpg,54,27,8,52,32061,,46820,1240,1240-1450,27-32,1923,Semester,Rural,http://www.schreiner.edu
Syracuse University,NY,Syracuse,13244,private,https://www.usnews.com/dims4/USNEWS/e7098c0/17177859217/thumbnail/200x150/quality/85/?url=https%3A%2F%2Fmedia.beam.usnews.com%2Fcb%2F53a7cc282100311bf0c29d16c2a67c%2Fcollege-photo_22933.jpg,54,25,41,50,53849,3.7,15226,1180,1180-1370,25-30,1870,Semester,City,https://www.syracuse.edu
Florida State University,FL,Tallahassee,32306,public,https://www.usnews.com/dims4/USNEWS/4eda5a9/17177859217/thumbnail/200x150/quality/85/?url=https%3A%2F%2Fmedia.beam.usnews.com%2Fbb%2F7003562f043ea2e299d5a44d9c0bbc%2F11_0241_%28011%29.jpg,57,26,24,37,21673,4,32472,1200,1200-1350,26-30,1851,Semester,City,http://www.fsu.edu
Pennsylvania State University--University Park,PA,University Park,16802,public,https://www.usnews.com/dims4/USNEWS/adc93ab/17177859217/thumbnail/200x150/quality/85/?url=https%3A%2F%2Fmedia.beam.usnews.com%2F0e%2F5de474cdda2fe39ff0c60d2db0259e%2Fcollege-photo_5953.jpg,57,25,17,56,35514,,40363,1160,1160-1360,25-30,1855,Semester,City,http://www.psu.edu
Purdue University--West Lafayette,IN,West Lafayette,47907,public,https://www.usnews.com/dims4/USNEWS/4ff9049/17177859217/thumbnail/200x150/quality/85/?url=https%3A%2F%2Fmedia.beam.usnews.com%2F1b%2F10e3ffe142fb8c23d5128df1de75a2%2Fcollege-photo_3097.jpg,57,25,23,58,28794,3.7,32672,1180,1180-1410,25-32,1869,Semester,City,http://www.purdue.edu
University of Miami,FL,Coral Gables,33124,private,https://www.usnews.com/dims4/USNEWS/06c5142/17177859217/thumbnail/200x150/quality/85/?url=https%3A%2F%2Fmedia.beam.usnews.com%2F8d%2F3ab1f0d8509a33f8dec799faccdded%2Fcollege-photo_11206.jpg,57,29,31,32,51930,3.6,11117,1250,1250-1430,29-32,1925,Semester,Suburban,http://www.miami.edu
University of Pittsburgh,PA,Pittsburgh,15260,public,https://www.usnews.com/dims4/USNEWS/6e5de36/17177859217/thumbnail/200x150/quality/85/?url=https%3A%2F%2Fmedia.beam.usnews.com%2Fcb%2F27750e68ae1da0cb0935e0a9b92eba%2Fcollege-photo_31411.jpg,57,28,,59,33746,4,19330,1270,1270-1430,28-33,1787,Semester,Urban,http://www.oafa.pitt.edu/
University of Washington,WA,Seattle,98195,public,https://www.usnews.com/dims4/USNEWS/93ba9bc/17177859217/thumbnail/200x150/quality/85/?url=https%3A%2F%2Fmedia.beam.usnews.com%2F06%2F034e31d063521a543bb42f6f2c00b6%2F_20180227_Fall-Fling_216.jpg,62,27,29,49,38796,3.8,32099,1220,1220-1460,27-32,1861,Quarter,Urban,http://www.washington.edu
Rutgers University--New Brunswick,NJ,Piscataway,8854,public,https://www.usnews.com/dims4/USNEWS/2b31c7c/17177859217/thumbnail/200x150/quality/85/?url=https%3A%2F%2Fmedia.beam.usnews.com%2F77%2Fd63d828afc35176403318efd541d95%2Fcollege-photo_36406.jpg,62,25,12,60,32189,,36039,1190,1190-1410,25-31,1766,Semester,City,https://newbrunswick.rutgers.edu
Loyola Marymount University,CA,Los Angeles,90045,private,https://www.usnews.com/dims4/USNEWS/ff1f25c/17177859217/thumbnail/200x150/quality/85/?url=https%3A%2F%2Fmedia.beam.usnews.com%2F48%2F9c0bfb4d4b7dfa9ed536a41b38341a%2Fcollege-photo_998.jpg,64,27,49,47,50283,3.8,6700,1210,1210-1390,27-31,1911,Semester,Suburban,http://www.lmu.edu
Southern Methodist University,TX,Dallas,75275,private,https://www.usnews.com/dims4/USNEWS/fe81844/17177859217/thumbnail/200x150/quality/85/?url=https%3A%2F%2Fmedia.beam.usnews.com%2F22%2Fda45ba18cafc60ba764ec300a6f899%2Fcollege-photo_15195.jpg,64,29,22,51,56560,3.6,6479,1280,1280-1460,29-33,1911,Semester,Urban,http://www.smu.edu
University of Connecticut,CT,Storrs,6269,public,https://www.usnews.com/dims4/USNEWS/ccc129a/17177859217/thumbnail/200x150/quality/85/?url=https%3A%2F%2Fmedia.beam.usnews.com%2Fd1%2F202f4160cac59750a606d3da18307f%2Fcollege-photo_18368.jpg,64,26,24,49,39894,,19133,1210,1210-1420,26-31,1881,Semester,Rural,http://www.uconn.edu
University of Maryland--College Park,MD,College Park,20742,public,https://www.usnews.com/dims4/USNEWS/4a25ab5/17177859217/thumbnail/200x150/quality/85/?url=https%3A%2F%2Fmedia.beam.usnews.com%2Fdb%2F35601f3f60a9564fed7dbb5674f765%2Fcollege-photo_23577.jpg,64,28,18,47,36890,4,30762,1290,1290-1480,28-33,1856,Semester,Suburban,http://www.maryland.edu
University of Massachusetts--Amherst,MA,Amherst,1003,public,https://www.usnews.com/dims4/USNEWS/7e51111/17177859217/thumbnail/200x150/quality/85/?url=https%3A%2F%2Fmedia.beam.usnews.com%2F0b%2Fa6d5f07e506eb7bd3df0cd435e78fc%2F1_2014_08_30_Football_Gillette_js_MG_2843-48.jpg,64,26,34,60,35710,3.9,23515,1200,1200-1390,26-31,1863,Semester,Suburban,http://www.umass.edu
Worcester Polytechnic Institute,MA,Worcester,1609,private,https://www.usnews.com/dims4/USNEWS/e647ad0/17177859217/thumbnail/200x150/quality/85/?url=https%3A%2F%2Fmedia.beam.usnews.com%2F9b%2F18766e26dfae548c231e4f11891a2c%2FWPI_photo_1.jpg,64,29,59,42,52322,3.9,4668,1300,1300-1460,29-33,1865,Semester,City,https://www.wpi.edu/admissions/undergraduate
Clemson University,SC,Clemson,29634,public,https://www.usnews.com/dims4/USNEWS/fffcb22/17177859217/thumbnail/200x150/quality/85/?url=https%3A%2F%2Fmedia.beam.usnews.com%2Fc8%2Ff75c7f9b803175a4cb407e8ab89824%2Fcollege-photo_23072.jpg,70,27,24,47,38112,4,19669,1220,1220-1400,27-32,1946,Differs by program,Rural,//www.nec.edu
George Washington University,DC,Washington,20052,private,https://www.usnews.com/dims4/USNEWS/386a4b6/17177859217/thumbnail/200x150/quality/85/?url=https%3A%2F%2Fmedia.beam.usnews.com%2F93%2F742265d75c507c9b4d74c460544823%2Fcollege-photo_25925.jpg,70,29,43,42,56935,,12546,1280,1280-1460,29-32,1821,Semester,Urban,http://www.gwu.edu
Texas A&M University--College Station,TX,College Station,77843,public,https://www.usnews.com/dims4/USNEWS/b3bbcb0/17177859217/thumbnail/200x150/quality/85/?url=https%3A%2F%2Fmedia.beam.usnews.com%2F1c%2Fb43467b2657e9b0f6411e7d772305c%2Fcollege-photo_22984.jpg,70,25,43,67,37726,,53743,1170,1170-1380,25-31,1876,Semester,City,http://www.tamu.edu
University of Minnesota--Twin Cities,MN,Minneapolis,55455,public,https://www.usnews.com/dims4/USNEWS/3f7cdc8/17177859217/thumbnail/200x150/quality/85/?url=https%3A%2F%2Fmedia.beam.usnews.com%2F1a%2F57ee27ac94e22161e9c049b7e44c48%2Fcollege-photo_25995.jpg,70,26,23,52,33325,,34633,1270,1270-1480,26-31,1851,Semester,Urban,https://twin-cities.umn.edu/
Fordham University,NY,New York,10023,private,https://www.usnews.com/dims4/USNEWS/1461f72/17177859217/thumbnail/200x150/quality/85/?url=https%3A%2F%2Fmedia.beam.usnews.com%2F7d%2F2c660496b823f534b6a70c2e3eb2cc%2Fcollege-photo_12860.jpg,74,28,56,46,54093,3.6,9645,1250,1250-1430,28-32,1841,Semester,Urban,http://www.fordham.edu
Stevens Institute of Technology,NJ,Hoboken,7030,private,https://www.usnews.com/dims4/USNEWS/3bc5e8c/17177859217/thumbnail/200x150/quality/85/?url=https%3A%2F%2Fmedia.beam.usnews.com%2Fa8%2Fe21b1a4c78eec18a599763e6e6fa44%2Fcollege-photo_26182.jpg,74,30,45,41,54014,3.9,3230,1330,1330-1480,30-33,1870,Semester,City,http://www.stevens.edu
Virginia Tech,VA,Blacksburg,24061,public,https://www.usnews.com/dims4/USNEWS/cd48ec2/17177859217/thumbnail/200x150/quality/85/?url=https%3A%2F%2Fmedia.beam.usnews.com%2F17%2Fdf%2Fcbd3365f48618e8ce9f9396a5e97%2F190913virginia-tech1.jpg,74,25,20,65,32835,4,27811,1180,1180-1390,25-31,1872,Semester,Rural,//www.vt.edu
American University,DC,Washington,20016,private,https://www.usnews.com/dims4/USNEWS/a3db684/17177859217/thumbnail/200x150/quality/85/?url=https%3A%2F%2Fmedia.beam.usnews.com%2Fa5%2Fbf592471bcd3a13a8ce5b8452ca2e1%2Fcollege-photo_293.jpg,77,27,45,32,49889,3.7,8287,1220,1220-1380,27-31,1893,Semester,Suburban,http://www.american.edu
Brigham Young University--Provo,UT,Provo,84602,private,https://www.usnews.com/dims4/USNEWS/f016581/17177859217/thumbnail/200x150/quality/85/?url=https%3A%2F%2Fmedia.beam.usnews.com%2Fe1%2F58%2Fa361e0ed4fddbfa09c59660f7b98%2F190822brigham-young-university-provo6.jpg,77,26,40,64,5790,3.9,31441,1190,1190-1420,26-31,1875,Semester,City,http://www.byu.edu
Baylor University,TX,Waco,76798,private,https://www.usnews.com/dims4/USNEWS/cf6fde3/17177859217/thumbnail/200x150/quality/85/?url=https%3A%2F%2Fmedia.beam.usnews.com%2F8b%2Ffa3e63d95c8d04d588236fa7237b3e%2Fcollege-photo_33114.jpg,79,26,53,52,47364,,14188,1190,1190-1370,26-31,1845,Semester,City,http://www.baylor.edu
Binghamton University--SUNY,NY,Binghamton,13902,public,https://www.usnews.com/dims4/USNEWS/7600b3f/17177859217/thumbnail/200x150/quality/85/?url=https%3A%2F%2Fmedia.beam.usnews.com%2F4b%2Fe2c046fb1c3ae257f28abef818079c%2Fcollege-photo_21371.jpg,79,28,63,40,27791,4,14021,1310,1310-1440,28-32,1946,Semester,Suburban,http://www.binghamton.edu
Gonzaga University,WA,Spokane,99258,private,https://www.usnews.com/dims4/USNEWS/0522c23/17177859217/thumbnail/200x150/quality/85/?url=https%3A%2F%2Fmedia.beam.usnews.com%2F34%2F1cb9a35129b00e1afec07b6ded2512%2Fcollege-photo_66.jpg,79,25,43,66,45140,3.7,5317,1183,1183-1350,25-30,1887,Semester,City,https://www.gonzaga.edu
Indiana University--Bloomington,IN,Bloomington,47405,public,https://www.usnews.com/dims4/USNEWS/0a3f6f5/17177859217/thumbnail/200x150/quality/85/?url=https%3A%2F%2Fmedia.beam.usnews.com%2F71%2Fd5039cf1209140b9105a4696b0b155%2F0001.jpg,79,24,17,77,36514,3.7,33301,1150,1150-1360,24-31,1820,Semester,City,https://www.indiana.edu
University at Buffalo--SUNY,NY,Buffalo,14214,public,https://www.usnews.com/dims4/USNEWS/1ec59ef/17177859217/thumbnail/200x150/quality/85/?url=https%3A%2F%2Fmedia.beam.usnews.com%2F77%2Fd11664668f460e23962439d7ffadeb%2Fstadium-DJI_0047_1.jpg,79,24,37,56,27850,3.7,21607,1160,1160-1330,24-29,1846,Semester,Suburban,http://www.buffalo.edu
Elon University,NC,Elon,27244,private,https://www.usnews.com/dims4/USNEWS/980ac29/17177859217/thumbnail/200x150/quality/85/?url=https%3A%2F%2Fmedia.beam.usnews.com%2F2f%2Fdba6f3f3f59a82522d737e4dfb1b65%2Fcollege-photo_27147.jpg,84,25,30,72,36571,4,6196,1150,1150-1330,25-30,1889,Unknown,Suburban,http://www.elon.edu
University of California--Santa Cruz,CA,Santa Cruz,95064,public,https://www.usnews.com/dims4/USNEWS/5f2d097/17177859217/thumbnail/200x150/quality/85/?url=https%3A%2F%2Fmedia.beam.usnews.com%2F8e%2Ffa0566a5854bafa34cbf50251bf6e0%2Fcollege-photo_25690.jpg,84,24,11,48,43046,3.6,17792,1170,1170-1400,24-31,1965,Quarter,Suburban,http://www.ucsc.edu
Colorado School of Mines,CO,Golden,80401,public,https://www.usnews.com/dims4/USNEWS/60dbbab/17177859217/thumbnail/200x150/quality/85/?url=https%3A%2F%2Fmedia.beam.usnews.com%2Fa3%2Fc41e1f5bf36ee2a343175d965f2b15%2FDJI_0037.jpg,84,28,23,49,39762,3.8,4954,1290,1290-1450,28-33,1874,Semester,Suburban,http://www.mines.edu
Marquette University,WI,Milwaukee,53201,private,https://www.usnews.com/dims4/USNEWS/ee61acb/17177859217/thumbnail/200x150/quality/85/?url=https%3A%2F%2Fmedia.beam.usnews.com%2F60%2F92652cf37cd44afa31adbfb4c9b7a3%2Fcollege-photo_7947.jpg,84,24,58,82,43936,,8435,1150,1150-1320,24-30,1881,Semester,Urban,http://www.marquette.edu
Michigan State University,MI,East Lansing,48824,public,https://www.usnews.com/dims4/USNEWS/8c7dead/17177859217/thumbnail/200x150/quality/85/?url=https%3A%2F%2Fmedia.beam.usnews.com%2F64%2F8948b60c1375c3871898da724f2083%2Fcollege-photo_15870.jpg,84,23,21,78,39766,3.7,39423,1110,1110-1310,23-29,1855,Semester,Suburban,http://www.msu.edu/
North Carolina State University--Raleigh,NC,Raleigh,27695,public,https://www.usnews.com/dims4/USNEWS/a929fde/17177859217/thumbnail/200x150/quality/85/?url=https%3A%2F%2Fmedia.beam.usnews.com%2F78%2F2a157bb0030394064cf7cdd0a80d1d%2Fcollege-photo_11015.jpg,84,27,41,47,29220,3.8,25199,1250,1250-1390,27-31,1887,Semester,City,http://admissions.ncsu.edu
University of Iowa,IA,Iowa City,52242,public,https://www.usnews.com/dims4/USNEWS/9056b64/17177859217/thumbnail/200x150/quality/85/?url=https%3A%2F%2Fmedia.beam.usnews.com%2F45%2F706fb2da3056b2cb7a7f1c0abc2372%2Fcollege-photo_26755.jpg,84,23,52,83,31568,3.7,23989,1120,1120-1330,23-28,1847,Semester,City,http://www.uiowa.edu
University of Delaware,DE,Newark,19716,public,https://www.usnews.com/dims4/USNEWS/3e9aac5/17177859217/thumbnail/200x150/quality/85/?url=https%3A%2F%2Fmedia.beam.usnews.com%2Fb6%2F454aeab7eb5704c44695271d46d4a3%2Fcollege-photo_4016.jpg,91,25,,62,34310,3.8,19117,1170,1170-1350,25-30,1743,Unknown,Suburban,http://www.udel.edu/
University of San Diego,CA,San Diego,92110,private,https://www.usnews.com/dims4/USNEWS/685458a/17177859217/thumbnail/200x150/quality/85/?url=https%3A%2F%2Fmedia.beam.usnews.com%2F14%2Fe4c69417c58d881093979ebf5cbc85%2Fcollege-photo_8421.jpg,91,25,50,53,51186,3.9,5855,1190,1190-1360,25-30,1949,Unknown,Urban,http://www.SanDiego.edu
University of California--Riverside,CA,Riverside,92521,public,https://www.usnews.com/dims4/USNEWS/88d0565/17177859217/thumbnail/200x150/quality/85/?url=https%3A%2F%2Fmedia.beam.usnews.com%2F6c%2F68f3515aea1ba176103a16ba099ccf%2Fcollege-photo_13243.jpg,91,23,1,51,42819,3.8,20581,1110,1110-1330,23-29,1954,Quarter,City,http://www.ucr.edu
Clark University,MA,Worcester,1610,private,https://www.usnews.com/dims4/USNEWS/fb20da1/17177859217/thumbnail/200x150/quality/85/?url=https%3A%2F%2Fmedia.beam.usnews.com%2F12%2F429c6046796ef5509573c983d65433%2Fcollege-photo_20158.jpg,91,28,59,59,47200,3.7,2304,1200,1200-1390,28-31,1887,Semester,City,http://www.clarku.edu
Miami University--Oxford,OH,Oxford,45056,public,https://www.usnews.com/dims4/USNEWS/e6973fd/17177859217/thumbnail/200x150/quality/85/?url=https%3A%2F%2Fmedia.beam.usnews.com%2F02%2F2a8961add0bdcfbeeb3a8ef818719d%2Fcollege-photo_1631.jpg,91,26,7,75,34307,3.8,17326,1200,1200-1380,26-31,1809,Semester,Rural,http://www.MiamiOH.edu
Stony Brook University--SUNY,NY,Stony Brook,11794,public,https://www.usnews.com/dims4/USNEWS/26d27c0/17177859217/thumbnail/200x150/quality/85/?url=https%3A%2F%2Fmedia.beam.usnews.com%2Fda%2F55f9c218f25686c56dd9095c8a2c2f%2Fcollege-photo_34218.jpg,91,26,12,42,28528,3.8,17522,1230,1230-1420,26-31,1957,Semester,Suburban,http://www.stonybrook.edu
Drexel University,PA,Philadelphia,19104,private,https://www.usnews.com/dims4/USNEWS/5c50bf4/17177859217/thumbnail/200x150/quality/85/?url=https%3A%2F%2Fmedia.beam.usnews.com%2Fcd%2Ff35e75d608aaf118054bf4c91d82af%2Fcollege-photo_12760.jpg,97,25,63,77,54516,3.7,13490,1170,1170-1380,25-30,1891,Quarter,Urban,http://www.drexel.edu
University of Denver,CO,Denver,80208,private,https://www.usnews.com/dims4/USNEWS/f135c2b/17177859217/thumbnail/200x150/quality/85/?url=https%3A%2F%2Fmedia.beam.usnews.com%2F1e%2Ff8ff330b160754cc1e35e1d1352da0%2Fcollege-photo_7142.jpg,97,26,41,56,52515,3.7,5801,1170,1170-1370,26-31,1864,Quarter,City,http://www.du.edu
New Jersey Institute of Technology,NJ,Newark,7102,public,https://www.usnews.com/dims4/USNEWS/3dbf449/17177859217/thumbnail/200x150/quality/85/?url=https%3A%2F%2Fmedia.beam.usnews.com%2F7e%2Fb3b8e2741b92a0ea183c9bec080001%2Fcollege-photo_33255.jpg,97,25,53,64,32750,3.6,8532,1190,1190-1380,25-30,1881,Semester,Urban,http://www.njit.edu
Saint Louis University,MO,St. Louis,63103,private,https://www.usnews.com/dims4/USNEWS/b4be5b4/17177859217/thumbnail/200x150/quality/85/?url=https%3A%2F%2Fmedia.beam.usnews.com%2Fbd%2F0aa616c3dc810b3df8fa7cf18642f4%2Fgrand-gateway.jpg,97,25,58,58,45424,3.9,7167,1180,1180-1370,25-31,1818,Semester,Urban,http://www.slu.edu
Texas Christian University,TX,Fort Worth,76129,private,https://www.usnews.com/dims4/USNEWS/0342f6a/17177859217/thumbnail/200x150/quality/85/?url=https%3A%2F%2Fmedia.beam.usnews.com%2F36%2F57dd41fc268d4e38ed9ff6e39deed6%2Fcollege-photo_3218.jpg,97,26,37,41,49250,,9445,1150,1150-1343,26-30,1873,Semester,Suburban,http://www.tcu.edu
University of San Francisco,CA,San Francisco,94117,private,https://www.usnews.com/dims4/USNEWS/04984b7/17177859217/thumbnail/200x150/quality/85/?url=https%3A%2F%2Fmedia.beam.usnews.com%2Fe1%2F7e70b28f2f8b5b7334aa3510a58608%2Fcollege-photo_1190.jpg,97,23,58,65,50282,3.5,6704,1130,1130-1330,23-29,1855,Semester,Urban,http://www.usfca.edu
Yeshiva University,NY,New York,10033,private,https://www.usnews.com/dims4/USNEWS/ff8cbba/17177859217/thumbnail/200x150/quality/85/?url=https%3A%2F%2Fmedia.beam.usnews.com%2Fe3%2F41c7e02ad279e22acaf436ea2d9630%2Fcollege-photo_12207.jpg,97,22,52,60,44900,3.4,2682,1140,1140-1400,22-30,1886,Semester,Urban,http://www.yu.edu
University of Colorado--Boulder,CO,Boulder,80309,public,https://www.usnews.com/dims4/USNEWS/4326580/17177859217/thumbnail/200x150/quality/85/?url=https%3A%2F%2Fmedia.beam.usnews.com%2F82%2F14930c2c8210c65c1d97e4dbd6bc1f%2Fcollege-photo_31810.jpg,104,25,13,82,38318,3.7,30152,1150,1150-1360,25-30,1861,Unknown,Urban,http://web.mit.edu/
University of Oregon,OR,Eugene,97403,public,https://www.usnews.com/dims4/USNEWS/63f569f/17177859217/thumbnail/200x150/quality/85/?url=https%3A%2F%2Fmedia.beam.usnews.com%2F74%2F0bd5dbe7cfc8e43be9a14443c2d2e2%2Fcollege-photo_18177.jpg,104,22,7,83,36615,3.6,19101,1080,1080-1290,22-28,1876,Quarter,City,https://www.uoregon.edu
Auburn University,AL,Auburn,36849,public,https://www.usnews.com/dims4/USNEWS/82a864e/17177859217/thumbnail/200x150/quality/85/?url=https%3A%2F%2Fmedia.beam.usnews.com%2Fe1%2Fc3e58114b9e270ac11d07a72b8bb7f%2Fcollege-photo_28846.jpg,104,25,14,75,31124,3.9,24628,1150,1150-1310,25-30,1856,Semester,Suburban,http://www.auburn.edu
Creighton University,NE,Omaha,68178,private,https://www.usnews.com/dims4/USNEWS/66efefe/17177859217/thumbnail/200x150/quality/85/?url=https%3A%2F%2Fmedia.beam.usnews.com%2F45%2F91030317e8ad57c35b979138f05644%2Fcollege-photo_13793.jpg,104,24,50,71,41400,3.7,4446,1150,1150-1350,24-30,1878,Semester,Urban,http://www.creighton.edu
Howard University,DC,Washington,20059,private,https://www.usnews.com/dims4/USNEWS/604c52b/17177859217/thumbnail/200x150/quality/85/?url=https%3A%2F%2Fmedia.beam.usnews.com%2F82%2F7bbabaea5b47be61379d37af47e531%2FHowardUniversity-FoundersLibrary.jpg,104,22,45,32,27206,3.6,6243,1140,1140-1285,22-27,1867,Semester,Urban,http://www.howard.edu
Loyola University Chicago,IL,Chicago,60660,private,https://www.usnews.com/dims4/USNEWS/d62a1aa/17177859217/thumbnail/200x150/quality/85/?url=https%3A%2F%2Fmedia.beam.usnews.com%2F9b%2Fc32187fc24665d5f56d983be171a56%2Fcollege-photo_29455.jpg,104,25,61,68,45543,3.7,11919,1120,1120-1310,25-30,1870,Semester,City,http://www.luc.edu
Rochester Institute of Technology,NY,Rochester,14623,private,https://www.usnews.com/dims4/USNEWS/57eb7f8/17177859217/thumbnail/200x150/quality/85/?url=https%3A%2F%2Fmedia.beam.usnews.com%2F18%2F217e163ff21614c1131e6e567a97e9%2Fcollege-photo_27708.jpg,104,27,71,66,45890,3.6,13513,1200,1200-1400,27-32,1829,Semester,Suburban,http://www.rit.edu
Temple University,PA,Philadelphia,19122,public,https://www.usnews.com/dims4/USNEWS/4ca9ad0/17177859217/thumbnail/200x150/quality/85/?url=https%3A%2F%2Fmedia.beam.usnews.com%2F42%2Fa5f3b9b7ae7fd41a960451771124c0%2Fcollege-photo_21951.jpg,104,24,51,59,34126,3.6,29484,1130,1130-1320,24-30,1884,Semester,Urban,http://www.temple.edu
University of California--Merced,CA,Merced,95343,public,https://www.usnews.com/dims4/USNEWS/ca4f875/17177859217/thumbnail/200x150/quality/85/?url=https%3A%2F%2Fmedia.beam.usnews.com%2F45%2F61c0dca668167933caa2c1027c4917%2Fcollege-photo_29536.jpg,104,18,36,66,42530,3.6,7881,1000,1000-1190,18-24,2005,Semester,Rural,http://www.ucmerced.edu
University of South Carolina,SC,Columbia,29208,public,https://www.usnews.com/dims4/USNEWS/e989221/17177859217/thumbnail/200x150/quality/85/?url=https%3A%2F%2Fmedia.beam.usnews.com%2F6a%2F3c1a5c49f439c1cc21106a7981155b%2Fcollege-photo_19707.jpg,104,25,4,63,33928,4,26733,1190,1190-1360,25-30,1801,Semester,City,http://www.sc.edu
University of South Florida,FL,Tampa,33620,public,https://www.usnews.com/dims4/USNEWS/cc096bb/17177859217/thumbnail/200x150/quality/85/?url=https%3A%2F%2Fmedia.beam.usnews.com%2Ff9%2F13afce02d3e80810dced80083ce23c%2F20170818-USF-HUDDLE_%26_USF_PHOTO-22.jpg,104,25,26,43,17324,3.9,32238,1170,1170-1330,25-29,1956,Semester,Urban,http://www.usf.edu
University of Tennessee,TN,Knoxville,37996,public,https://www.usnews.com/dims4/USNEWS/daa65ad/17177859217/thumbnail/200x150/quality/85/?url=https%3A%2F%2Fmedia.beam.usnews.com%2Ff5%2Fb0b2d6569b9b1c38929e066251717e%2Fcollege-photo_33614.jpg,104,25,42,78,31454,3.6,22815,1150,1150-1330,25-31,1794,Semester,Urban,http://utk.edu
University of Utah,UT,Salt Lake City,84112,public,https://www.usnews.com/dims4/USNEWS/540a872/17177859217/thumbnail/200x150/quality/85/?url=https%3A%2F%2Fmedia.beam.usnews.com%2F5c%2F56e451b77163161894c4def98b68fd%2Fcollege-photo_20743.jpg,104,22,13,67,30132,3.6,24743,1130,1130-1350,22-29,1850,Semester,Urban,http://www.utah.edu
Arizona State University--Tempe,AZ,Tempe,85287,public,https://www.usnews.com/dims4/USNEWS/42d7cf6/17177859217/thumbnail/200x150/quality/85/?url=https%3A%2F%2Fmedia.beam.usnews.com%2Fd0%2Ff2a8c0a903b07fc0670e8ae1dd4a74%2Fcollege-photo_30360.jpg,117,22,32,85,29428,3.5,42844,1130,1130-1360,22-29,1885,Semester,Urban,//www.asu.edu
Clarkson University,NY,Potsdam,13699,private,https://www.usnews.com/dims4/USNEWS/25f5939/17177859217/thumbnail/200x150/quality/85/?url=https%3A%2F%2Fmedia.beam.usnews.com%2F91%2F5e6a368730ac10c4006f36f0f62566%2Fcollege-photo_23146.jpg,117,24,81,71,51128,3.7,3091,1160,1160-1350,24-30,1896,Semester,Rural,https://www.clarkson.edu/
Illinois Institute of Technology,IL,Chicago,60616,private,https://www.usnews.com/dims4/USNEWS/9fb1369/17177859217/thumbnail/200x150/quality/85/?url=https%3A%2F%2Fmedia.beam.usnews.com%2F70%2F1c%2Fad873b444082bbd6b37ca1130dfe%2F190903illinois-institute-of-technology14.jpg,117,26,66,58,49280,4,3026,1220,1220-1400,26-31,1890,Semester,Urban,http://admissions.iit.edu/undergraduate/apply
University of Arizona,AZ,Tucson,85721,public,https://www.usnews.com/dims4/USNEWS/ef85572/17177859217/thumbnail/200x150/quality/85/?url=https%3A%2F%2Fmedia.beam.usnews.com%2F33%2F175f22c3f80609afd8eb9205ed61e3%2Fcollege-photo_29621.jpg,117,21,30,84,36366,3.3,35233,1070,1070-1310,21-28,1885,Semester,City,http://www.arizona.edu
Iowa State University,IA,Ames,50011,public,https://www.usnews.com/dims4/USNEWS/3fde99a/17177859217/thumbnail/200x150/quality/85/?url=https%3A%2F%2Fmedia.beam.usnews.com%2Fad%2Fe457136a85b0ecb6e658b7f1ccec60%2Fcollege-photo_252.jpg,121,22,36,91,24508,3.6,29621,1092,1092-1334,22-28,1858,Semester,City,http://www.iastate.edu
SUNY College of Environmental Science and Forestry,NY,Syracuse,13210,public,https://www.usnews.com/dims4/USNEWS/f5684c1/17177859217/thumbnail/200x150/quality/85/?url=https%3A%2F%2Fmedia.beam.usnews.com%2F65%2Fab08757e1416c87923d6bd5d762ad6%2Fcollege-photo_29342.jpg,121,23,,61,18644,3.7,1779,1120,1120-1310,23-29,1911,Semester,City,http://www.esf.edu
University of Tulsa,OK,Tulsa,74104,private,https://www.usnews.com/dims4/USNEWS/15845d4/17177859217/thumbnail/200x150/quality/85/?url=https%3A%2F%2Fmedia.beam.usnews.com%2Fce%2F8f5830310a0ee281c7bf1b31c6369a%2Fcollege-photo_20596.jpg,121,25,49,41,42238,3.9,3296,1180,1180-1410,25-32,1894,Semester,City,http://utulsa.edu
University of Vermont,VT,Burlington,5405,public,https://www.usnews.com/dims4/USNEWS/aabf58a/17177859217/thumbnail/200x150/quality/85/?url=https%3A%2F%2Fmedia.beam.usnews.com%2F5f%2F51f1f719f3b97f038f11f900e05e03%2Fcollege-photo_943.jpg,121,26,50,68,43690,3.6,11328,1180,1180-1360,26-31,1791,Semester,Suburban,http://www.uvm.edu
Chapman University,CA,Orange,92866,private,https://www.usnews.com/dims4/USNEWS/cb9f758/17177859217/thumbnail/200x150/quality/85/?url=https%3A%2F%2Fmedia.beam.usnews.com%2F93%2Fb46d525df512eea49dd0eb7c7cafae%2Fcollege-photo_325.jpg,125,25,51,54,54924,3.7,7281,1190,1190-1370,25-30,1861,Unknown,Suburban,http://www.chapman.edu
DePaul University,IL,Chicago,60604,private,https://www.usnews.com/dims4/USNEWS/9541660/17177859217/thumbnail/200x150/quality/85/?url=https%3A%2F%2Fmedia.beam.usnews.com%2Fc0%2Fff83f231242936db24d261135d2690%2Fcollege-photo_14885.jpg,125,23,68,68,41202,3.7,14507,1080,1080-1290,23-29,1898,Quarter,Urban,http://www.depaul.edu
University of New Hampshire,NH,Durham,3824,public,https://www.usnews.com/dims4/USNEWS/0ddfdfc/17177859217/thumbnail/200x150/quality/85/?url=https%3A%2F%2Fmedia.beam.usnews.com%2Fde%2F9b3ac6e109f791ca921b8ea352543b%2Fcollege-photo_27971.jpg,125,23,59,77,35409,3.5,12782,1090,1090-1280,23-28,2006,Quarter,City,https://jpcatholic.edu/
Simmons University,MA,Boston,2115,private,https://www.usnews.com/dims4/USNEWS/bc64a32/17177859217/thumbnail/200x150/quality/85/?url=https%3A%2F%2Fmedia.beam.usnews.com%2F04%2F6113452e0cd70ab6b5ff925c80e93a%2Fcollege-photo_6564.jpg,125,24,75,70,42066,3.4,1837,1130,1130-1300,24-30,1899,Semester,Urban,http://www.simmons.edu
University of the Pacific,CA,Stockton,95211,private,https://www.usnews.com/dims4/USNEWS/76655ee/17177859217/thumbnail/200x150/quality/85/?url=https%3A%2F%2Fmedia.beam.usnews.com%2F94%2F88ba29780da34f20cee16449c9ecfa%2Fcollege-photo_3876.jpg,125,22,70,63,49588,3.5,3701,1120,1120-1350,22-30,1851,Semester,City,http://www.pacific.edu
Drake University,IA,Des Moines,50311,private,https://www.usnews.com/dims4/USNEWS/c79b562/17177859217/thumbnail/200x150/quality/85/?url=https%3A%2F%2Fmedia.beam.usnews.com%2F7a%2F97dcb50aaad6bc26deb8f3b85ef78d%2Fcollege-photo_28294.jpg,130,24,60,68,42840,3.7,3015,1140,1140-1360,24-30,1881,Semester,City,//www.drake.edu
University of Kansas,KS,Lawrence,66045,public,https://www.usnews.com/dims4/USNEWS/8d8b4e8/17177859217/thumbnail/200x150/quality/85/?url=https%3A%2F%2Fmedia.beam.usnews.com%2Fe0%2Fe0ca120d3a9ef1d8d4a0872ddc4c83%2Fcollege-photo_1157.jpg,130,23,31,92,27358,3.6,19596,,N/A,23-29,1865,Semester,City,https://ku.edu
University of La Verne,CA,La Verne,91750,private,https://www.usnews.com/dims4/USNEWS/543c2fd/17177859217/thumbnail/200x150/quality/85/?url=https%3A%2F%2Fmedia.beam.usnews.com%2Faf%2Fd37107493db7458e3dc187dc2e04d7%2Fcollege-photo_18211.jpg,132,20,83,51,44500,3.5,2798,1020,1020-1205,20-26,1891,Unknown,Suburban,http://www.laverne.edu
Duquesne University,PA,Pittsburgh,15282,private,https://www.usnews.com/dims4/USNEWS/d5cd5d8/17177859217/thumbnail/200x150/quality/85/?url=https%3A%2F%2Fmedia.beam.usnews.com%2F57%2F7d78fcf1382ba8c210dbe6ab3dae11%2Fcollege-photo_18781.jpg,132,24,66,72,39992,3.8,6013,1140,1140-1280,24-29,1878,Semester,Urban,http://www.duq.edu
Rutgers University--Newark,NJ,Newark,7102,public,https://www.usnews.com/dims4/USNEWS/64fb5df/17177859217/thumbnail/200x150/quality/85/?url=https%3A%2F%2Fmedia.beam.usnews.com%2Fe2%2Fdf1e430bd929ca578704004ed2689f%2Fcollege-photo_36380.jpg,132,19,11,63,31608,,9142,1020,1020-1190,19-24,1908,Semester,Urban,http://www.newark.rutgers.edu/
University of Dayton,OH,Dayton,45469,private,https://www.usnews.com/dims4/USNEWS/71ddcb6/17177859217/thumbnail/200x150/quality/85/?url=https%3A%2F%2Fmedia.beam.usnews.com%2F45%2Fcadffb73f8373b17128107d76c52b0%2Fcollege-photo_4235.jpg,132,25,56,72,44100,3.8,8617,1110,1110-1310,25-30,1850,Semester,Suburban,http://www.udayton.edu
University of Illinois--Chicago,IL,Chicago,60607,public,https://www.usnews.com/dims4/USNEWS/ae9d3f7/17177859217/thumbnail/200x150/quality/85/?url=https%3A%2F%2Fmedia.beam.usnews.com%2Fe9%2F6d907501915ba1862cb6beb9b68690%2Fcollege-photo_9965.jpg,132,21,23,76,27672,3.4,20783,1020,1020-1220,21-27,1965,Semester,Urban,http://www.uic.edu
University of Kentucky,KY,Lexington,40506,public,https://www.usnews.com/dims4/USNEWS/8e01d50/17177859217/thumbnail/200x150/quality/85/?url=https%3A%2F%2Fmedia.beam.usnews.com%2Fcc%2F8ff23e604e39fdb0f946d4ac03727d%2Fcollege-photo_21807.jpg,132,23,14,94,30680,3.5,22136,1080,1080-1300,23-29,1865,Semester,City,http://www.uky.edu
University of Oklahoma,OK,Norman,73019,public,https://www.usnews.com/dims4/USNEWS/c3ea327/17177859217/thumbnail/200x150/quality/85/?url=https%3A%2F%2Fmedia.beam.usnews.com%2F05%2F2dc988b4a19627c434b183045500aa%2Fcollege-photo_13004.jpg,132,23,14,78,27144,3.6,22152,1140,1140-1350,23-29,1890,Semester,City,http://www.ou.edu
University of St. Thomas,MN,St. Paul,55105,private,https://www.usnews.com/dims4/USNEWS/1f08388/17177859217/thumbnail/200x150/quality/85/?url=https%3A%2F%2Fmedia.beam.usnews.com%2F0d%2F1c1dbe7e90fa4488730b764bf061b5%2Fcollege-photo_30283.jpg,139,24,55,82,42736,3.6,6395,1130,1130-1380,24-29,1885,Unknown,Urban,http://www.stthomas.edu
Oregon State University,OR,Corvallis,97331,public,https://www.usnews.com/dims4/USNEWS/f76527e/17177859217/thumbnail/200x150/quality/85/?url=https%3A%2F%2Fmedia.beam.usnews.com%2F18%2Fae9b41ecff0c371c7a130859c1c2ec%2Fcollege-photo_20198.jpg,139,22,34,81,31314,3.6,25699,1080,1080-1310,22-28,1868,Quarter,City,http://oregonstate.edu
Seattle University,WA,Seattle,98122,private,https://www.usnews.com/dims4/USNEWS/ed60efd/17177859217/thumbnail/200x150/quality/85/?url=https%3A%2F%2Fmedia.beam.usnews.com%2Fa9%2F54181c9457e54ea2f9f21604c8506d%2Fcollege-photo_32610.jpg,139,24,52,76,46590,3.6,4764,1130,1130-1320,24-30,1891,Quarter,Urban,http://www.seattleu.edu
The Catholic University of America,DC,Washington,20064,private,https://www.usnews.com/dims4/USNEWS/6a75538/17177859217/thumbnail/200x150/quality/85/?url=https%3A%2F%2Fmedia.beam.usnews.com%2Fa3%2F98762d9d7742233df007b7715ef156%2Fcollege-photo_1833.jpg,139,24,54,84,47746,3.5,3332,1140,1140-1320,24-30,1887,Semester,Urban,https://www.catholic.edu/
Seton Hall University,NJ,South Orange,7079,private,https://www.usnews.com/dims4/USNEWS/6b5b201/17177859217/thumbnail/200x150/quality/85/?url=https%3A%2F%2Fmedia.beam.usnews.com%2F06%2Fb049e582fac6603f59ef5f40842e89%2Fcollege-photo_20882.jpg,139,24,,70,43780,3.6,6136,1150,1150-1310,24-28,1856,Semester,Suburban,http://www.shu.edu
University of Cincinnati,OH,Cincinnati,45221,public,https://www.usnews.com/dims4/USNEWS/8f8aab9/17177859217/thumbnail/200x150/quality/85/?url=https%3A%2F%2Fmedia.beam.usnews.com%2F66%2F6035914dbead0a6776e6610cca02b0%2Fcollege-photo_32541.jpg,139,24,24,73,26994,3.7,26932,1160,1160-1370,24-29,1819,Semester,Urban,http://www.uc.edu
University of Missouri,MO,Columbia,65211,public,https://www.usnews.com/dims4/USNEWS/6948291/17177859217/thumbnail/200x150/quality/85/?url=https%3A%2F%2Fmedia.beam.usnews.com%2Fac%2Fea309eb04f4ae7b44a52c496298468%2Fcollege-photo_36234.jpg,139,23,37,78,28348,,22503,1090,1090-1290,23-29,1839,Semester,City,http://www.missouri.edu
University of Nebraska--Lincoln,NE,Lincoln,68588,public,https://www.usnews.com/dims4/USNEWS/11a637e/17177859217/thumbnail/200x150/quality/85/?url=https%3A%2F%2Fmedia.beam.usnews.com%2Fa8%2Fcb2a25ab453411f161360628588545%2Fcollege-photo_35461.jpg,139,22,28,80,25828,3.6,20830,1130,1130-1360,22-29,1869,Semester,City,http://www.unl.edu
Samford University,AL,Birmingham,35229,private,https://www.usnews.com/dims4/USNEWS/9326792/17177859217/thumbnail/200x150/quality/85/?url=https%3A%2F%2Fmedia.beam.usnews.com%2F22%2Fa990aa37078c714b185ad43655c697%2Fcollege-photo_8613.jpg,147,23,40,82,32850,3.8,3535,1072,1072-1270,23-29,1841,Unknown,Suburban,http://www.samford.edu
Michigan Technological University,MI,Houghton,49931,public,https://www.usnews.com/dims4/USNEWS/705d6e5/17177859217/thumbnail/200x150/quality/85/?url=https%3A%2F%2Fmedia.beam.usnews.com%2Fa6%2Fc3%2F896aa01f468f894c5d8fd5e5addc%2F190903michigan-technological-university15.jpg,147,24,31,74,35196,3.8,5828,1170,1170-1360,24-30,1885,Semester,Rural,http://www.mtu.edu
San Diego State University,CA,San Diego,92182,public,https://www.usnews.com/dims4/USNEWS/9fe5fdc/17177859217/thumbnail/200x150/quality/85/?url=https%3A%2F%2Fmedia.beam.usnews.com%2F10%2Fbf411bc48494f8a6cbbeec6d269f2e%2Fcollege-photo_15698.jpg,147,22,30,34,19390,3.7,30393,1110,1110-1310,22-28,1897,Semester,Urban,http://www.sdsu.edu
University at Albany--SUNY,NY,Albany,12222,public,https://www.usnews.com/dims4/USNEWS/639bb07/17177859217/thumbnail/200x150/quality/85/?url=https%3A%2F%2Fmedia.beam.usnews.com%2F71%2F1dd9b5e7c6692cf7b39b8d7a290e87%2Fcollege-photo_23213.jpg,147,22,50,52,26666,3.3,13598,1100,1100-1260,22-27,1844,Semester,Suburban,http://www.albany.edu
University of St. Joseph,CT,West Hartford,6117,private,https://www.usnews.com/dims4/USNEWS/24e12bf/17177859217/thumbnail/200x150/quality/85/?url=https%3A%2F%2Fmedia.beam.usnews.com%2F84%2F69e0444231ad19f3bf24960766abca%2Fcollege-photo_18056.jpg,147,20,87,72,40286,3.6,903,1030,1030-1210,20-25,1932,Semester,Suburban,http://www.usj.edu
University of Texas--Dallas,TX,Richardson,75080,public,https://www.usnews.com/dims4/USNEWS/7e59c59/17177859217/thumbnail/200x150/quality/85/?url=https%3A%2F%2Fmedia.beam.usnews.com%2Fcc%2F8641043a909b438377e2779492e1a1%2Fcollege-photo_33942.jpg,147,25,30,81,38168,,19872,1220,1220-1440,25-32,1969,Semester,Suburban,https://www.utdallas.edu
George Mason University,VA,Fairfax,22030,public,https://www.usnews.com/dims4/USNEWS/d24a024/17177859217/thumbnail/200x150/quality/85/?url=https%3A%2F%2Fmedia.beam.usnews.com%2F95%2F7e1553b342425c389572ad5caae8ec%2F171120001new.jpg,153,24,43,81,36024,3.7,26192,1120,1120-1320,24-30,1972,Semester,Suburban,https://www2.gmu.edu
Louisiana State University--Baton Rouge,LA,Baton Rouge,70803,public,https://www.usnews.com/dims4/USNEWS/0297986/17177859217/thumbnail/200x150/quality/85/?url=https%3A%2F%2Fmedia.beam.usnews.com%2F8e%2F7768f4b049a11810e6eb61ccc8bf36%2Fcollege-photo_33084.jpg,153,23,19,74,28639,3.4,25361,1070,1070-1290,23-29,1860,Semester,Urban,http://www.lsu.edu
Mercer University,GA,Macon,31207,private,https://www.usnews.com/dims4/USNEWS/b5f2611/17177859217/thumbnail/200x150/quality/85/?url=https%3A%2F%2Fmedia.beam.usnews.com%2F0f%2F30b2cd8814d187a42334cdbdb2b157%2Fcollege-photo_30670.jpg,153,25,70,72,37808,3.9,4797,1180,1180-1340,25-30,1833,Semester,City,http://www.mercer.edu
The New School,NY,New York,10011,private,https://www.usnews.com/dims4/USNEWS/247db86/17177859217/thumbnail/200x150/quality/85/?url=https%3A%2F%2Fmedia.beam.usnews.com%2F04%2Ff9c9d316100935fff2089c4df471fa%2Fcollege-photo_16501.jpg,153,24,34,57,50954,3.4,7444,1150,1150-1360,24-30,1919,Semester,Urban,http://www.newschool.edu
Quinnipiac University,CT,Hamden,6518,private,https://www.usnews.com/dims4/USNEWS/ae11d63/17177859217/thumbnail/200x150/quality/85/?url=https%3A%2F%2Fmedia.beam.usnews.com%2F4f%2Fe1aaab103d3e950e698d0d7a02acfe%2F20181025-fall-quad-001.jpg,153,23,62,72,49280,3.4,7425,1090,1090-1260,23-28,1929,Semester,Suburban,//www.qu.edu
Thomas Jefferson University,PA,Philadelphia,19107,private,https://www.usnews.com/dims4/USNEWS/0e170fc/17177859217/thumbnail/200x150/quality/85/?url=https%3A%2F%2Fmedia.beam.usnews.com%2F4a%2Fa63cde11784a8a916da918d8359e7c%2Fcollege-photo_36792.jpg,153,22,71,58,41715,3.6,3604,1060,1060-1240,22-28,1824,Semester,Urban,http://www.jefferson.edu/
University of Alabama,AL,Tuscaloosa,35487,public,https://www.usnews.com/dims4/USNEWS/3b4fabe/17177859217/thumbnail/200x150/quality/85/?url=https%3A%2F%2Fmedia.beam.usnews.com%2Ff5%2Ff5%2Fc151160f43f69ca6ea9587abe22a%2F190830university-of-alabama0.jpg,153,23,24,59,30250,3.7,33028,1060,1060-1280,23-31,1831,Semester,Suburban,http://www.ua.edu
University of Arkansas,AR,Fayetteville,72701,public,https://www.usnews.com/dims4/USNEWS/99519b4/17177859217/thumbnail/200x150/quality/85/?url=https%3A%2F%2Fmedia.beam.usnews.com%2F34%2F5344e8b46d580ced69018363e831e9%2Fcollege-photo_22755.jpg,153,23,16,77,25872,3.7,23386,1100,1100-1290,23-29,1871,Semester,City,http://www.uark.edu
Valparaiso University,IN,Valparaiso,46383,private,https://www.usnews.com/dims4/USNEWS/dbe749b/17177859217/thumbnail/200x150/quality/85/?url=https%3A%2F%2Fmedia.beam.usnews.com%2Fd9%2F62cdb0e69f3a62215a29a694be8e1a%2Fcollege-photo_11634.jpg,153,23,77,89,41820,3.7,3218,1070,1070-1270,23-29,1859,Semester,City,https://www.valpo.edu
Hofstra University,NY,Hempstead,11549,private,https://www.usnews.com/dims4/USNEWS/3aaa497/17177859217/thumbnail/200x150/quality/85/?url=https%3A%2F%2Fmedia.beam.usnews.com%2Fef%2Fff104d1c426ffd58845ce5fcda6757%2Fcollege-photo_32913.jpg,162,24,62,63,47510,3.6,6701,1150,1150-1330,24-30,1935,Semester,Suburban,http://www.hofstra.edu
Kansas State University,KS,Manhattan,66506,public,https://www.usnews.com/dims4/USNEWS/655009b/17177859217/thumbnail/200x150/quality/85/?url=https%3A%2F%2Fmedia.beam.usnews.com%2Fb1%2Fb6d8dc2ef55dc9b7953d02a9fa9104%2Fcollege-photo_14242.jpg,162,22,,94,25887,3.6,17869,,N/A,22-28,1928,Semester,City,//www.elms.edu
University of Mississippi,MS,University,38677,public,https://www.usnews.com/dims4/USNEWS/da0753c/17177859217/thumbnail/200x150/quality/85/?url=https%3A%2F%2Fmedia.beam.usnews.com%2Fd9%2F65d1ab859c99e837d4a16f1b1e41b2%2Fcollege-photo_19940.jpg,162,21,25,88,25090,3.6,18007,1050,1050-1270,21-29,1848,Semester,Rural,http://www.olemiss.edu
Virginia Commonwealth University,VA,Richmond,23284,public,https://www.usnews.com/dims4/USNEWS/c18f025/17177859217/thumbnail/200x150/quality/85/?url=https%3A%2F%2Fmedia.beam.usnews.com%2F74%2Fe1d610b01336e20799f11c356f4ab2%2Fcollege-photo_30255.jpg,162,21,32,77,35244,3.7,24058,1070,1070-1260,21-28,1838,Semester,Urban,https://www.vcu.edu
University of Maryland--Baltimore County,MD,Baltimore,21250,public,https://www.usnews.com/dims4/USNEWS/56dae64/17177859217/thumbnail/200x150/quality/85/?url=https%3A%2F%2Fmedia.beam.usnews.com%2F6c%2F746b06e545effec5a09e0b2e62d0f7%2Fcollege-photo_36071.jpg,166,24,64,58,27662,3.9,11260,1190,1190-1360,24-29,1966,Unknown,Suburban,http://www.umbc.edu
Adelphi University,NY,Garden City,11530,private,https://www.usnews.com/dims4/USNEWS/14692f7/17177859217/thumbnail/200x150/quality/85/?url=https%3A%2F%2Fmedia.beam.usnews.com%2Ff3%2F22be9e669abf6493ab475fccbe64a5%2Fcollege-photo_37212.jpg,166,22,65,74,38660,3.5,5391,1080,1080-1270,22-27,1896,Semester,Suburban,http://www.adelphi.edu
Belmont University,TN,Nashville,37212,private,https://www.usnews.com/dims4/USNEWS/d035713/17177859217/thumbnail/200x150/quality/85/?url=https%3A%2F%2Fmedia.beam.usnews.com%2Fe4%2Fe6%2Fa422be6b4ed993f936b7fc9d3ccf%2F190816belmont-university1.jpg,166,24,48,82,35650,3.8,6656,1120,1120-1300,24-29,1890,Semester,Urban,//www.Belmont.edu
Colorado State University,CO,Fort Collins,80523,public,https://www.usnews.com/dims4/USNEWS/9d8f99d/17177859217/thumbnail/200x150/quality/85/?url=https%3A%2F%2Fmedia.beam.usnews.com%2Fc0%2F89eaa7009d6d73510dec9b18c4173b%2Fcollege-photo_4387.jpg,166,23,17,84,30780,3.6,26400,1070,1070-1280,23-28,1870,Semester,City,http://www.colostate.edu
Montclair State University,NJ,Montclair,7043,public,https://www.usnews.com/dims4/USNEWS/e96441a/17177859217/thumbnail/200x150/quality/85/?url=https%3A%2F%2Fmedia.beam.usnews.com%2F82%2F0fdd2c67da643b1c103ea8e5539de1%2Fcollege-photo_29798.jpg,166,19,,71,21033,3.3,16988,990,990-1170,19-24,1908,Semester,Suburban,http://www.montclair.edu
Rowan University,NJ,Glassboro,8028,public,https://www.usnews.com/dims4/USNEWS/0acc736/17177859217/thumbnail/200x150/quality/85/?url=https%3A%2F%2Fmedia.beam.usnews.com%2F30%2F452309eaf9fa3da4f84d50255743d1%2FRowan-Biomedical_Eng_Contact_Drug_Delivery_012.jpg,166,20,34,73,22832,3.5,16120,1005,1005-1225,20-27,1923,Semester,Suburban,http://www.rowan.edu
Rutgers University--Camden,NJ,Camden,8102,public,https://www.usnews.com/dims4/USNEWS/d983cdd/17177859217/thumbnail/200x150/quality/85/?url=https%3A%2F%2Fmedia.beam.usnews.com%2F09%2F63b49f50e937baa161efa96c9dbe99%2Fcollege-photo_36064.jpg,166,17,35,71,31500,,5776,1000,1000-1180,17-23,1926,Semester,Urban,https://www.camden.rutgers.edu/
St. John Fisher College,NY,Rochester,14618,private,https://www.usnews.com/dims4/USNEWS/e295a10/17177859217/thumbnail/200x150/quality/85/?url=https%3A%2F%2Fmedia.beam.usnews.com%2F8b%2F8045070768c76b4e9b60ce0ac511ab%2Fcollege-photo_2071.jpg,166,22,80,64,35150,3.5,2752,1080,1080-1250,22-26,1948,Semester,Suburban,http://www.sjfc.edu
University of Alabama--Birmingham,AL,Birmingham,35294,public,https://www.usnews.com/dims4/USNEWS/dc4a012/17177859217/thumbnail/200x150/quality/85/?url=https%3A%2F%2Fmedia.beam.usnews.com%2F30%2F09a5b34c4fa3a81530dcb48b57fc70%2Fcollege-photo_12935.jpg,166,21,23,92,25380,3.7,13836,980,980-1240,21-29,1969,Semester,Urban,http://www.uab.edu
University of Central Florida,FL,Orlando,32816,public,https://www.usnews.com/dims4/USNEWS/39113df/17177859217/thumbnail/200x150/quality/85/?url=https%3A%2F%2Fmedia.beam.usnews.com%2Fd5%2Ff4ffeeb4fbffe03e2525c316867e95%2Fucf_41566218.jpg,166,25,21,43,22467,4,58913,1160,1160-1340,25-29,1963,Semester,Suburban,http://www.ucf.edu
University of Hawaii--Manoa,HI,Honolulu,96822,public,https://www.usnews.com/dims4/USNEWS/6077e3d/17177859217/thumbnail/200x150/quality/85/?url=https%3A%2F%2Fmedia.beam.usnews.com%2F28%2F6b5272486323ecc3539a74885a5786%2Fcollege-photo_16415.jpg,166,20,25,83,34002,3.6,12968,1055,1055-1240,20-25,1907,Semester,Urban,http://www.manoa.hawaii.edu/
University of Rhode Island,RI,Kingston,2881,public,https://www.usnews.com/dims4/USNEWS/aa65400/17177859217/thumbnail/200x150/quality/85/?url=https%3A%2F%2Fmedia.beam.usnews.com%2F2e%2F59556432de86ff4f1ed552cdbfca20%2Fcollege-photo_1461.jpg,166,23,57,71,31686,3.6,13865,1090,1090-1260,23-27,1892,Semester,Rural,http://www.uri.edu
Washington State University,WA,Pullman,99164,public,https://www.usnews.com/dims4/USNEWS/674858d/17177859217/thumbnail/200x150/quality/85/?url=https%3A%2F%2Fmedia.beam.usnews.com%2F99%2F7a961effc21d2b440fab065b5dc6b1%2Fcollege-photo_8117.jpg,166,20,43,77,26419,3.4,26098,1020,1020-1210,20-26,1890,Semester,Rural,https://www.wsu.edu
Gallaudet University,DC,Washington,20002,private,https://www.usnews.com/dims4/USNEWS/a18f4ec/17177859217/thumbnail/200x150/quality/85/?url=https%3A%2F%2Fmedia.beam.usnews.com%2F3e%2F7cc69d2a605ae1ddc15f8bfc725fc7%2Fcollege-photo_9682.jpg,179,15,89,57,17038,3.2,1138,792,792-1077,15-20,1864,Semester,Urban,http://www.gallaudet.edu
Missouri University of Science and Technology,MO,Rolla,65409,public,https://www.usnews.com/dims4/USNEWS/532fa94/17177859217/thumbnail/200x150/quality/85/?url=https%3A%2F%2Fmedia.beam.usnews.com%2Fa6%2Ffe16b681d1cb675b9101e02e54ca21%2Fcollege-photo_31627.jpg,179,25,,84,29601,3.7,6848,1180,1180-1380,25-31,1870,Semester,Rural,http://www.mst.edu
St. John's University,NY,Queens,11439,private,,179,23,57,73,43000,3.5,16884,1070,1070-1270,23-29,1870,Semester,Urban,http://www.stjohns.edu/
University of Detroit Mercy,MI,Detroit,48221,private,https://www.usnews.com/dims4/USNEWS/25aeb04/17177859217/thumbnail/200x150/quality/85/?url=https%3A%2F%2Fmedia.beam.usnews.com%2Fc0%2Fd3195da6c8b1b53664827ca937a0b1%2Fcollege-photo_4112.jpg,179,21,64,83,28840,3.6,2880,1050,1050-1250,21-27,1877,Semester,Urban,http://www.udmercy.edu
University of Idaho,ID,Moscow,83844,public,https://www.usnews.com/dims4/USNEWS/60091f2/17177859217/thumbnail/200x150/quality/85/?url=https%3A%2F%2Fmedia.beam.usnews.com%2Fc0%2F4e222d10b9efed7026f87ded8c9143%2Fcollege-photo_17379.jpg,179,20,44,77,27540,3.4,9568,1010,1010-1220,20-26,1889,Semester,Rural,http://www.uidaho.edu/admissions
University of Massachusetts--Lowell,MA,Lowell,1854,public,https://www.usnews.com/dims4/USNEWS/ca64db0/17177859217/thumbnail/200x150/quality/85/?url=https%3A%2F%2Fmedia.beam.usnews.com%2Fff%2F6037107e2b079d7f4557cdf0894b43%2Faerial-lowell.jpg,179,24,,72,32827,3.6,14005,1150,1150-1320,24-29,1894,Semester,City,http://www.uml.edu
Biola University,CA,La Mirada,90639,private,https://www.usnews.com/dims4/USNEWS/7854001/17177859217/thumbnail/200x150/quality/85/?url=https%3A%2F%2Fmedia.beam.usnews.com%2Fd5%2Fb2287f0c24fda2d73da42a9f59d5b7%2Fcollege-photo_29608.jpg,185,21,67,87,41976,3.6,4010,1060,1060-1260,21-27,1908,Unknown,Suburban,http://www.biola.edu
Chatham University,PA,Pittsburgh,15232,private,https://www.usnews.com/dims4/USNEWS/c95c145/17177859217/thumbnail/200x150/quality/85/?url=https%3A%2F%2Fmedia.beam.usnews.com%2Fea%2Fa84bbd3979d7b125c32c6d84b88e3c%2Fcollege-photo_2215.jpg,185,21,70,55,38738,3.6,1105,1040,1040-1250,21-26,1869,Semester,Urban,http://www.chatham.edu
Ohio University,OH,Athens,45701,public,https://www.usnews.com/dims4/USNEWS/7daa1e3/17177859217/thumbnail/200x150/quality/85/?url=https%3A%2F%2Fmedia.beam.usnews.com%2F2e%2Ff3588f8b4464b8c6a3f215f4213eff%2F20120604class_gateway_bws.jpg,185,21,50,78,22406,3.5,22275,1070,1070-1270,21-26,1804,Semester,N/A,http://www.ohio.edu
Pacific University,OR,Forest Grove,97116,private,https://www.usnews.com/dims4/USNEWS/d4fc87d/17177859217/thumbnail/200x150/quality/85/?url=https%3A%2F%2Fmedia.beam.usnews.com%2F98%2F94599dd82347cf16bbe93895acf6ee%2Fcollege-photo_10957.jpg,185,21,78,85,46402,3.7,1894,1060,1060-1250,21-27,1849,Semester,Suburban,http://www.pacificu.edu
Union University,TN,Jackson,38305,private,https://www.usnews.com/dims4/USNEWS/e66f9bc/17177859217/thumbnail/200x150/quality/85/?url=https%3A%2F%2Fmedia.beam.usnews.com%2F19%2Fcf2852407eead8dd5296bfc3982c35%2Fcollege-photo_37141.jpg,185,23,58,57,33900,3.8,2191,1110,1110-1360,23-30,1823,Semester,City,http://www.uu.edu
University of Houston,TX,Houston,77204,public,https://www.usnews.com/dims4/USNEWS/e7d1071/17177859217/thumbnail/200x150/quality/85/?url=https%3A%2F%2Fmedia.beam.usnews.com%2F4f%2F53190e0ae6c635fb8d801e8c9fb19f%2Fcollege-photo_10139.jpg,185,22,19,62,26936,3.8,38348,1130,1130-1310,22-28,1927,Semester,Urban,http://www.uh.edu
University of North Carolina--Wilmington,NC,Wilmington,28403,public,https://www.usnews.com/dims4/USNEWS/a40fbc9/17177859217/thumbnail/200x150/quality/85/?url=https%3A%2F%2Fmedia.beam.usnews.com%2Faa%2F6f5bf2cdc0eb47222335242549b9c9%2Fcollege-photo_36480.jpg,185,23,4,61,21246,4,14452,1190,1190-1320,23-27,1947,Semester,Urban,http://www.uncw.edu
Seattle Pacific University,WA,Seattle,98119,private,https://www.usnews.com/dims4/USNEWS/c2bf6a8/17177859217/thumbnail/200x150/quality/85/?url=https%3A%2F%2Fmedia.beam.usnews.com%2F11%2F548b851e3b4d286bf7cae98ee815fb%2Fcollege-photo_32487.jpg,192,20,,90,45078,3.7,2876,1030,1030-1240,20-27,1891,Quarter,Urban,http://www.spu.edu
Ball State University,IN,Muncie,47306,public,https://www.usnews.com/dims4/USNEWS/afaa882/17177859217/thumbnail/200x150/quality/85/?url=https%3A%2F%2Fmedia.beam.usnews.com%2F33%2Fda873685e35b1af0675f6f68c06b69%2Fcollege-photo_23667.jpg,192,20,,62,26984,,,1080,1080-1240,20-24,1918,Semester,Suburban,http://www.bsu.edu
Misericordia University,PA,Dallas,18612,private,https://www.usnews.com/dims4/USNEWS/2afeab4/17177859217/thumbnail/200x150/quality/85/?url=https%3A%2F%2Fmedia.beam.usnews.com%2Fea%2Fe1d9615c76670ea4e6ea9744a95746%2Fcollege-photo_17205.jpg,192,23,,83,34560,3.4,2030,1040,1040-1200,23-26,1924,Semester,Suburban,http://www.misericordia.edu/
Oklahoma State University,OK,Stillwater,74078,public,https://www.usnews.com/dims4/USNEWS/a871633/17177859217/thumbnail/200x150/quality/85/?url=https%3A%2F%2Fmedia.beam.usnews.com%2F3e%2F5d485ca66faaef1cc40e10970efe50%2Fcollege-photo_3665.jpg,192,22,,74,24539,3.6,20574,1060,1060-1280,22-28,1890,Semester,City,http://go.okstate.edu
University of Louisville,KY,Louisville,40292,public,https://www.usnews.com/dims4/USNEWS/f5deec6/17177859217/thumbnail/200x150/quality/85/?url=https%3A%2F%2Fmedia.beam.usnews.com%2F55%2Fb5e0ba054b3c201e11a2742b464e96%2Fcollege-photo_2740.jpg,192,22,,73,26958,3.6,15642,960,960-1205,22-29,1798,Semester,Urban,http://www.louisville.edu
Bethel University,MN,St. Paul,55112,private,,197,22,,71,38460,3.6,2857,1033,1033-1286,22-28,1871,Unknown,Suburban,https://www.bethel.edu
Bellarmine University,KY,Louisville,40205,private,https://www.usnews.com/dims4/USNEWS/fd9a041/17177859217/thumbnail/200x150/quality/85/?url=https%3A%2F%2Fmedia.beam.usnews.com%2F63%2F5f27cd66e1a1306e1abfaf33ea3489%2Fcollege-photo_30709.jpg,197,22,,86,42430,3.6,2552,1060,1060-1270,22-28,1950,Semester,Urban,http://www.bellarmine.edu
Illinois State University,IL,Normal,61790,public,https://www.usnews.com/dims4/USNEWS/1a143d0/17177859217/thumbnail/200x150/quality/85/?url=https%3A%2F%2Fmedia.beam.usnews.com%2F03%2Fb82c56888c518ee8daad97bb3e1aba%2Fcollege-photo_16342.jpg,197,20,,89,26040,3.4,18107,,N/A,20-26,1857,Semester,Urban,https://illinoisstate.edu/
Loyola University New Orleans,LA,New Orleans,70118,private,https://www.usnews.com/dims4/USNEWS/e8565d1/17177859217/thumbnail/200x150/quality/85/?url=https%3A%2F%2Fmedia.beam.usnews.com%2F07%2F80b03b93dada67b65f837abf9f0b1c%2Fcollege-photo_20565.jpg,197,22,,75,40592,3.5,2982,1060,1060-1240,22-28,1912,Semester,Urban,http://www.loyno.edu
Towson University,MD,Towson,21252,public,https://www.usnews.com/dims4/USNEWS/9f512d8/17177859217/thumbnail/200x150/quality/85/?url=https%3A%2F%2Fmedia.beam.usnews.com%2Ff3%2Fc6a71ce168d011f0c7a2cdc7d5fe8e%2Fcollege-photo_13485.jpg,197,20,,79,24334,3.6,19818,1060,1060-1200,20-25,1866,Semester,Suburban,http://www.towson.edu
Edgewood College,WI,Madison,53711,private,https://www.usnews.com/dims4/USNEWS/c828f67/17177859217/thumbnail/200x150/quality/85/?url=https%3A%2F%2Fmedia.beam.usnews.com%2F6f%2F04cd920b8670533bfa3a82f5862691%2Fcollege-photo_4848.jpg,202,20,,73,30600,3.4,1488,970,970-1220,20-25,1927,Semester,City,http://www.edgewood.edu
Florida Institute of Technology,FL,Melbourne,32901,private,https://www.usnews.com/dims4/USNEWS/d5a740c/17177859217/thumbnail/200x150/quality/85/?url=https%3A%2F%2Fmedia.beam.usnews.com%2F54%2F335496639d7a24b4f547936e2a9a3f%2Fcollege-photo_14462.jpg,202,25,,65,42470,3.7,3680,1150,1150-1340,25-30,1958,Semester,City,http://www.fit.edu
Maryville University of St. Louis,MO,St Louis,63141,private,https://www.usnews.com/dims4/USNEWS/52a15cc/17177859217/thumbnail/200x150/quality/85/?url=https%3A%2F%2Fmedia.beam.usnews.com%2Fac%2Fce8b57afbbdb932d07a65999af765e%2Fcollege-photo_4538.jpg,202,20,,95,28470,3.6,3678,1020,1020-1240,20-26,1872,Semester,Suburban,http://www.maryville.edu
Pace University,NY,New York,10038,private,https://www.usnews.com/dims4/USNEWS/070980e/17177859217/thumbnail/200x150/quality/85/?url=https%3A%2F%2Fmedia.beam.usnews.com%2F74%2F8a5382560ae46b6eeb0b2c0ebf1d68%2Fcollege-photo_37306.jpg,202,22,,76,46446,3.4,8960,1060,1060-1220,22-27,1906,Semester,Urban,http://www.pace.edu
Regis University,CO,Denver,80221,private,https://www.usnews.com/dims4/USNEWS/4948936/17177859217/thumbnail/200x150/quality/85/?url=https%3A%2F%2Fmedia.beam.usnews.com%2Fc1%2Fbbff76509778f75c0f593cf86b79b7%2Fcollege-photo_20339.jpg,202,21,,60,38180,3.6,3961,1050,1050-1230,21-27,1877,Semester,Suburban,http://www.regis.edu
Robert Morris University,PA,Moon Township,15108,private,https://www.usnews.com/dims4/USNEWS/4b80f96/17177859217/thumbnail/200x150/quality/85/?url=https%3A%2F%2Fmedia.beam.usnews.com%2F38%2F69%2F5a3339004cc5a4eda38c89c28350%2F190821robert-morris-university1.jpg,202,21,,85,31200,3.5,4005,1030,1030-1200,21-28,1921,Semester,Suburban,http://www.rmu.edu
University of Maine,ME,Orono,4469,public,https://www.usnews.com/dims4/USNEWS/4c5ba54/17177859217/thumbnail/200x150/quality/85/?url=https%3A%2F%2Fmedia.beam.usnews.com%2F98%2Ff7b50c295d7562b5573eb8de9895b0%2F1-Default.jpg,202,22,,92,31748,3.3,9365,1050,1050-1250,22-27,1865,Semester,Rural,http://www.umaine.edu
University of St. Francis,IL,Joliet,60435,private,https://www.usnews.com/dims4/USNEWS/0f8181b/17177859217/thumbnail/200x150/quality/85/?url=https%3A%2F%2Fmedia.beam.usnews.com%2F1a%2Fcd2c7421d9334d5aae86a1818b4940%2Fcollege-photo_9445.jpg,202,20,,47,34000,3.4,1629,1030,1030-1190,20-26,1920,Semester,Suburban,http://www.stfrancis.edu
Widener University,PA,Chester,19013,private,https://www.usnews.com/dims4/USNEWS/e29f4f1/17177859217/thumbnail/200x150/quality/85/?url=https%3A%2F%2Fmedia.beam.usnews.com%2Fe4%2Fdf54d72d141a607c19023cae7908ac%2Fcollege-photo_2538.jpg,202,20,,69,47328,3.4,3345,1020,1020-1200,20-26,1821,Semester,Suburban,http://www.widener.edu
California State University--Fresno,CA,Fresno,93740,public,https://www.usnews.com/dims4/USNEWS/0b685a2/17177859217/thumbnail/200x150/quality/85/?url=https%3A%2F%2Fmedia.beam.usnews.com%2Ff4%2Fc42949cb51d9579311d2d425c0b569%2F130725Academics015.JPG,211,16,,58,12725,3.5,22071,910,910-1110,16-22,1911,Semester,Urban,http://www.csufresno.edu
Georgia State University,GA,Atlanta,30302,public,https://www.usnews.com/dims4/USNEWS/401d914/17177859217/thumbnail/200x150/quality/85/?url=https%3A%2F%2Fmedia.beam.usnews.com%2Fa9%2F5942691c71130f339cc2228fffbdf1%2Fcollege-photo_17339.jpg,211,21,,57,30114,3.5,27190,990,990-1190,21-26,1913,Semester,Urban,http://www.gsu.edu
Immaculata University,PA,Immaculata,19345,private,,211,21,,81,27350,3.3,1504,1018,1018-1223,21-28,1920,Semester,Suburban,http://www.immaculata.edu
Kent State University,OH,Kent,44242,public,https://www.usnews.com/dims4/USNEWS/800ade3/17177859217/thumbnail/200x150/quality/85/?url=https%3A%2F%2Fmedia.beam.usnews.com%2F89%2F82f7dd013d01cc554db5fa36ff15e7%2Fcollege-photo_7973.jpg,211,20,,85,19792,3.4,22557,1030,1030-1210,20-25,1910,Semester,Suburban,http://www.kent.edu
Mississippi State University,MS,Mississippi State,39762,public,https://www.usnews.com/dims4/USNEWS/95f41fc/17177859217/thumbnail/200x150/quality/85/?url=https%3A%2F%2Fmedia.beam.usnews.com%2F7f%2F61f2e669e17f1fa5b20f30cbb1e9ae%2Fcollege-photo_8631.jpg,211,22,,57,23950,3.4,18490,1070,1070-1330,22-29,1878,Semester,Rural,http://www.msstate.edu
University of Hartford,CT,West Hartford,6117,private,,211,22,,75,42182,,5000,1050,1050-1250,22-28,1877,Semester,Suburban,http://www.hartford.edu
Wilkes University,PA,Wilkes-Barre,18766,private,https://www.usnews.com/dims4/USNEWS/49580c4/17177859217/thumbnail/200x150/quality/85/?url=https%3A%2F%2Fmedia.beam.usnews.com%2F52%2Fed20f088224d4088d4ace57996e203%2F_1MM1987a-2.jpg,211,21,,75,37622,3.6,2455,1050,1050-1240,21-27,1933,Semester,City,http://www.wilkes.edu
Clarke University,IA,Dubuque,52001,private,https://www.usnews.com/dims4/USNEWS/3ce2abb/17177859217/thumbnail/200x150/quality/85/?url=https%3A%2F%2Fmedia.beam.usnews.com%2Fc0%2Fdc7175e372653ac34ec3efb4064b70%2F_MG_9583_lowres.jpg,218,19,,82,34670,3.4,744,930,930-1096,19-23,1843,Semester,Urban,https://www.clarke.edu
Florida International University,FL,Miami,33199,public,https://www.usnews.com/dims4/USNEWS/9c7601c/17177859217/thumbnail/200x150/quality/85/?url=https%3A%2F%2Fmedia.beam.usnews.com%2Fd9%2Fce5c42690f453ae5e351564b57fce3%2Fcollege-photo_20246.jpg,218,23,,59,18956,4,48439,1090,1090-1260,23-27,1972,Semester,Urban,http://www.fiu.edu
Gannon University,PA,Erie,16541,private,https://www.usnews.com/dims4/USNEWS/9e00e3e/17177859217/thumbnail/200x150/quality/85/?url=https%3A%2F%2Fmedia.beam.usnews.com%2F1e%2F76553ef78e2163cfa452b87cc072d0%2Fcollege-photo_17085.jpg,218,20,,81,33226,3.5,3291,1020,1020-1220,20-26,1925,Semester,City,http://www.gannon.edu
Hampton University,VA,Hampton,23668,private,https://www.usnews.com/dims4/USNEWS/1e2304e/17177859217/thumbnail/200x150/quality/85/?url=https%3A%2F%2Fmedia.beam.usnews.com%2F85%2F6ea21a6e031cb227492b6fe018697c%2Fcollege-photo_10393.jpg,218,19,,36,28024,3.3,3672,1040,1040-1310,19-24,1868,Semester,Urban,http://www.hamptonu.edu
Lipscomb University,TN,Nashville,37204,private,https://www.usnews.com/dims4/USNEWS/c163276/17177859217/thumbnail/200x150/quality/85/?url=https%3A%2F%2Fmedia.beam.usnews.com%2F7d%2Fe07bf7d17827407b00e9cf94051287%2Fcollege-photo_19565.jpg,218,22,,60,33424,3.7,2938,1060,1060-1320,22-29,1891,Semester,Suburban,http://www.lipscomb.edu
Sacred Heart University,CT,Fairfield,6825,private,https://www.usnews.com/dims4/USNEWS/4998b83/17177859217/thumbnail/200x150/quality/85/?url=https%3A%2F%2Fmedia.beam.usnews.com%2F70%2F606176597a208e7bb6874597fd3ec6%2Fcollege-photo_19861.jpg,218,23,,60,43070,3.5,5974,1100,1100-1240,23-27,1963,Semester,Suburban,http://www.sacredheart.edu
Texas Tech University,TX,Lubbock,79409,public,https://www.usnews.com/dims4/USNEWS/7716228/17177859217/thumbnail/200x150/quality/85/?url=https%3A%2F%2Fmedia.beam.usnews.com%2Fba%2F63dfa2b309dad19269d470c9dbc827%2Fcollege-photo_28842.jpg,218,22,,71,23770,3.6,31957,1070,1070-1240,22-27,1923,Semester,City,http://www.ttu.edu
University of Massachusetts--Dartmouth,MA,North Dartmouth,2747,public,https://www.usnews.com/dims4/USNEWS/394993b/17177859217/thumbnail/200x150/quality/85/?url=https%3A%2F%2Fmedia.beam.usnews.com%2Fca%2F3f30ad1ad7cd8ed16df7648d2a1194%2Fcollege-photo_33772.jpg,218,19,,78,30103,3.2,6841,990,990-1190,19-26,1895,Semester,Suburban,http://www.umassd.edu
University of New Mexico,NM,Albuquerque,87131,public,https://www.usnews.com/dims4/USNEWS/cb3cf44/17177859217/thumbnail/200x150/quality/85/?url=https%3A%2F%2Fmedia.beam.usnews.com%2F2a%2F7a60869d82f635300e20054dbdb24a%2Fcollege-photo_21160.jpg,218,19,,52,24490,3.4,17859,1030,1030-1260,19-25,1889,Semester,Urban,http://www.unm.edu
Western New England University,MA,Springfield,1119,private,https://www.usnews.com/dims4/USNEWS/5f48f80/17177859217/thumbnail/200x150/quality/85/?url=https%3A%2F%2Fmedia.beam.usnews.com%2F93%2Ff6ca8b441cfe967097bfc4b8bda5c5%2Fcollege-photo_1182.jpg,218,22,,85,37992,3.5,2751,1060,1060-1250,22-27,1919,Semester,Suburban,http://www.wne.edu
St. Catherine University,MN,St. Paul,55105,private,https://www.usnews.com/dims4/USNEWS/b0d4a50/17177859217/thumbnail/200x150/quality/85/?url=https%3A%2F%2Fmedia.beam.usnews.com%2Fea%2Ffe8ad4fb36107a96b9c0bba4b9737f%2Fcollege-photo_34176.jpg,228,20,,70,41614,3.6,3283,1100,1100-1275,20-26,1905,Unknown,Urban,http://www.stkate.edu
University of Indianapolis,IN,Indianapolis,46227,private,https://www.usnews.com/dims4/USNEWS/e70321b/17177859217/thumbnail/200x150/quality/85/?url=https%3A%2F%2Fmedia.beam.usnews.com%2F2d%2F61c58b294ad7e090a28e5f39d2e48b%2Fcollege-photo_3463.jpg,228,19,,81,30976,3.5,4508,990,990-1180,19-25,1902,Unknown,Urban,http://www.uindy.edu
Azusa Pacific University,CA,Azusa,91702,private,https://www.usnews.com/dims4/USNEWS/53b154c/17177859217/thumbnail/200x150/quality/85/?url=https%3A%2F%2Fmedia.beam.usnews.com%2Fa2%2F6acb6e86472d5dda026df52099f2df%2Fcollege-photo_11672.jpg,228,21,,69,38880,3.7,5657,1020,1020-1240,21-27,1899,Semester,Suburban,http://www.apu.edu
CUNY--City College,NY,New York,10031,public,https://www.usnews.com/dims4/USNEWS/65699a6/17177859217/thumbnail/200x150/quality/85/?url=https%3A%2F%2Fmedia.beam.usnews.com%2Fdc%2F92c8f6868242a02f5a5c8302803826%2Fcollege-photo_6100.jpg,228,,,38,18475,3.3,13666,950,950-1190,N/A,1847,Semester,Urban,//admissions@ccny.cuny.edu
East Carolina University,NC,Greenville,27858,public,https://www.usnews.com/dims4/USNEWS/8fd98a4/17177859217/thumbnail/200x150/quality/85/?url=https%3A%2F%2Fmedia.beam.usnews.com%2Ff7%2Fe6fd932775828513e474fa972ca3a8%2Fcollege-photo_35377.jpg,228,19,,82,23516,3.3,23071,1030,1030-1180,19-24,1907,Semester,City,http://www.ecu.edu
Grand Valley State University,MI,Allendale,49401,public,https://www.usnews.com/dims4/USNEWS/160afdd/17177859217/thumbnail/200x150/quality/85/?url=https%3A%2F%2Fmedia.beam.usnews.com%2F40%2F6a3bdd16b75f4b28e83d45d7a96198%2Fcollege-photo_33849.jpg,228,21,,83,18296,3.6,21680,1050,1050-1240,21-27,1960,Semester,Suburban,http://www.gvsu.edu
Indiana University-Purdue University--Indianapolis,IN,Indianapolis,46202,public,,228,19,,81,30712,3.5,21246,1000,1000-1200,19-26,1969,Semester,Urban,https://www.iupui.edu
The Sage Colleges,NY,Troy,12180,private,https://www.usnews.com/dims4/USNEWS/86e16f8/17177859217/thumbnail/200x150/quality/85/?url=https%3A%2F%2Fmedia.beam.usnews.com%2Fd7%2F46%2F6cb689814d5dab13cb02f1efc6d1%2F190830the-sage-colleges0.jpg,228,17,,93,31883,3.2,1477,940,940-1140,17-22,1916,Semester,City,http://www.sage.edu
University of Massachusetts--Boston,MA,Boston,2125,public,https://www.usnews.com/dims4/USNEWS/6a2f27d/17177859217/thumbnail/200x150/quality/85/?url=https%3A%2F%2Fmedia.beam.usnews.com%2F05%2Fd8dafebbabfd2b8e4145176be41aec%2Fcollege-photo_29208.jpg,228,21,,78,35075,3.3,12714,1020,1020-1220,21-27,1964,Semester,N/A,http://www.umb.edu
University of North Carolina--Charlotte,NC,Charlotte,28223,public,,228,21,,67,20288,3.4,24387,1120,1120-1270,21-26,1946,Semester,Suburban,http://www.uncc.edu/
University of Wyoming,WY,Laramie,82071,public,,228,22,,96,18151,3.5,9998,1050,1050-1280,22-28,1886,Semester,Suburban,http://www.uwyo.edu
West Virginia University,WV,Morgantown,26506,public,https://www.usnews.com/dims4/USNEWS/4e7b51e/17177859217/thumbnail/200x150/quality/85/?url=https%3A%2F%2Fmedia.beam.usnews.com%2F37%2F7152bcd9217461478e5a91bdf290ef%2Fcollege-photo_22108.jpg,228,21,,82,25320,3.5,21155,1050,1050-1240,21-27,1867,Semester,Suburban,http://www.wvu.edu
Central Michigan University,MI,Mount Pleasant,48859,public,https://www.usnews.com/dims4/USNEWS/7d53b4a/17177859217/thumbnail/200x150/quality/85/?url=https%3A%2F%2Fmedia.beam.usnews.com%2Fdd%2Fb3554062ba30d585f6d7adf77d61c5%2Fcollege-photo_8168.jpg,240,20,,69,12960,3.4,16432,1000,1000-1200,20-27,1892,Semester,Rural,http://www.cmich.edu
Harding University,AR,Searcy,72149,private,https://www.usnews.com/dims4/USNEWS/7ca1e59/17177859217/thumbnail/200x150/quality/85/?url=https%3A%2F%2Fmedia.beam.usnews.com%2F65%2F889803e32481ef361fca528d2ba977%2Fcollege-photo_22411.jpg,240,22,,68,20530,3.6,3974,1060,1060-1300,22-29,1924,Semester,Suburban,http://www.harding.edu
Long Island University,NY,Brookville,,private,,240,21,,76,38368,3.3,9918,1050,1050-1250,21-27,1926,Semester,N/A,//www.liu.edu
Oklahoma City University,OK,Oklahoma City,73106,private,https://www.usnews.com/dims4/USNEWS/34eb836/17177859217/thumbnail/200x150/quality/85/?url=https%3A%2F%2Fmedia.beam.usnews.com%2Fde%2Fbff4ad9190a560ce81354439e8c857%2Fcollege-photo_9258.jpg,240,23,,76,32594,3.8,1622,1090,1090-1280,23-29,1904,Semester,Urban,http://www.okcu.edu
University of Findlay,OH,Findlay,45840,private,https://www.usnews.com/dims4/USNEWS/b77d203/17177859217/thumbnail/200x150/quality/85/?url=https%3A%2F%2Fmedia.beam.usnews.com%2F15%2Fffda467275440adb9f9336c1baa766%2Fcollege-photo_11098.jpg,240,21,,73,35410,,3614,1052,1052-1247,21-26,1882,Semester,City,http://www.findlay.edu
University of Nevada--Reno,NV,Reno,89557,public,https://www.usnews.com/dims4/USNEWS/9e0208e/17177859217/thumbnail/200x150/quality/85/?url=https%3A%2F%2Fmedia.beam.usnews.com%2Fbc%2F384233eb0572d4b4cbd9ffde05c7ba%2Fcollege-photo_20610.jpg,240,21,,88,23075,3.4,17930,1070,1070-1280,21-26,1874,Semester,Urban,http://www.unr.edu
Bowling Green State University,OH,Bowling Green,43403,public,https://www.usnews.com/dims4/USNEWS/708caaf/17177859217/thumbnail/200x150/quality/85/?url=https%3A%2F%2Fmedia.beam.usnews.com%2F81%2F17c35065b829f1c3c1d791f6287d0f%2Fcollege-photo_18886.jpg,246,20,,72,19305,3.4,14858,1000,1000-1200,20-25,1910,Semester,Rural,http://www.bgsu.edu
George Fox University,OR,Newberg,97132,private,https://www.usnews.com/dims4/USNEWS/19ea897/17177859217/thumbnail/200x150/quality/85/?url=https%3A%2F%2Fmedia.beam.usnews.com%2Fd4%2F44a6c4b9f9b457b297c855b5bf9d4a%2Fcollege-photo_3762.jpg,246,21,,82,37280,3.6,2700,1020,1020-1230,21-27,1891,Semester,Suburban,http://www.georgefox.edu
Lesley University,MA,Cambridge,2138,private,https://www.usnews.com/dims4/USNEWS/bfe3e55/17177859217/thumbnail/200x150/quality/85/?url=https%3A%2F%2Fmedia.beam.usnews.com%2Fba%2F8092342369fba4956d9d5135f95839%2Fcollege-photo_33519.jpg,246,19,,76,28750,3.2,2127,938,938-1293,19-29,1909,Semester,City,//www.lesley.edu
Montana State University,MT,Bozeman,59717,public,https://www.usnews.com/dims4/USNEWS/d18457b/17177859217/thumbnail/200x150/quality/85/?url=https%3A%2F%2Fmedia.beam.usnews.com%2Fe4%2F3f15b8579684f5917c648d322d3504%2Fcollege-photo_34544.jpg,246,21,,82,25708,3.5,14919,1090,1090-1320,21-28,1893,Semester,City,http://www.montana.edu
University of New England,ME,Biddeford,4005,private,https://www.usnews.com/dims4/USNEWS/13df628/17177859217/thumbnail/200x150/quality/85/?url=https%3A%2F%2Fmedia.beam.usnews.com%2Fc2%2Fb90298b800c88f112fd9a6c0170a95%2Fcollege-photo_21010.jpg,246,20,,80,38750,3.4,4449,1050,1050-1240,20-26,1831,Semester,Suburban,http://www.une.edu
Wayne State University,MI,Detroit,48202,public,https://www.usnews.com/dims4/USNEWS/194536c/17177859217/thumbnail/200x150/quality/85/?url=https%3A%2F%2Fmedia.beam.usnews.com%2F1e%2Fb636c25d90821b1a0c2719d447ec1c%2Fcollege-photo_1083.jpg,246,21,,71,31499,3.4,17602,1010,1010-1210,21-27,1868,Semester,Urban,https://wayne.edu/
Western Michigan University,MI,Kalamazoo,49008,public,https://www.usnews.com/dims4/USNEWS/1474f6a/17177859217/thumbnail/200x150/quality/85/?url=https%3A%2F%2Fmedia.beam.usnews.com%2F7f%2F1648c1025c09c601432931f0729794%2Fcollege-photo_36717.jpg,246,20,,81,16041,3.4,17760,990,990-1190,20-26,1903,Semester,City,https://wmich.edu/
Nova Southeastern University,FL,Ft. Lauderdale,33314,private,https://www.usnews.com/dims4/USNEWS/c759f74/17177859217/thumbnail/200x150/quality/85/?url=https%3A%2F%2Fmedia.beam.usnews.com%2F2f%2F99242a2e5b9fff793a8d07cd567587%2FUR_20171109_1972.jpg,246,22,,79,32150,4,4904,1080,1080-1290,22-28,1964,Trimester,Suburban,http://www.nova.edu
Baker University,KS,Baldwin City,66006,private,https://www.usnews.com/dims4/USNEWS/3751b19/17177859217/thumbnail/200x150/quality/85/?url=https%3A%2F%2Fmedia.beam.usnews.com%2Fbe%2Fe5976ee1c190c100c99667f47a50ee%2Fcollege-photo_12793.jpg,254,20,,88,29800,3.5,1214,930,930-1175,20-25,1858,Unknown,Rural,http://www.bakeru.edu
College of St. Scholastica,MN,Duluth,55811,private,,254,20,,66,38282,3.5,2479,1050,1050-1270,20-26,1912,Semester,Suburban,http://www.css.edu
D'Youville College,NY,Buffalo,14201,private,https://www.usnews.com/dims4/USNEWS/f5cf81b/17177859217/thumbnail/200x150/quality/85/?url=https%3A%2F%2Fmedia.beam.usnews.com%2F17%2F4f8f9c4ca2d8233ae43acc482f5792%2Fcollege-photo_31403.jpg,254,14,,100,27940,3.7,1699,1030,1030-1200,14-23,1908,Semester,Urban,http://www.dyc.edu
Florida A&M University,FL,Tallahassee,32307,public,,254,19,,39,17725,3.4,8137,1040,1040-1170,19-23,1887,Semester,City,http://www.famu.edu
Lincoln Memorial University,TN,Harrogate,37752,private,,254,19,,43,22740,3.5,1953,1003,1003-1198,19-25,1897,Semester,Rural,http://www.lmunet.edu
Southern Illinois University--Carbondale,IL,Carbondale,62901,public,https://www.usnews.com/dims4/USNEWS/294706b/17177859217/thumbnail/200x150/quality/85/?url=https%3A%2F%2Fmedia.beam.usnews.com%2F63%2Fb652e36587ae7571e3909bb77fb751%2Fcollege-photo_11308.jpg,254,20,,72,14904,3.2,9552,1020,1020-1300,20-27,1869,Semester,Rural,http://www.siu.edu
University of Colorado--Denver,CO,Denver,80217,public,https://www.usnews.com/dims4/USNEWS/120c511/17177859217/thumbnail/200x150/quality/85/?url=https%3A%2F%2Fmedia.beam.usnews.com%2F43%2F7a9cba82bd4fe326f122d658f0c4fa%2Fcollege-photo_12603.jpg,254,21,,64,32005,3.5,16385,1020,1020-1210,21-26,1912,Semester,Urban,http://www.ucdenver.edu
University of Montana,MT,Missoula,59812,public,https://www.usnews.com/dims4/USNEWS/33f5a61/17177859217/thumbnail/200x150/quality/85/?url=https%3A%2F%2Fmedia.beam.usnews.com%2Fca%2Fe0d2931fa3bd9d991dd041b0f97018%2Fcollege-photo_11345.jpg,254,20,,88,26218,3.3,8306,1040,1040-1260,20-26,1893,Semester,Urban,http://www.umt.edu
Utah State University,UT,Logan,84322,public,,254,21,,89,22197,3.6,24880,1050,1050-1290,21-28,1888,Semester,City,http://www.usu.edu
Daemen College,NY,Amherst,14226,private,https://www.usnews.com/dims4/USNEWS/a483bbc/17177859217/thumbnail/200x150/quality/85/?url=https%3A%2F%2Fmedia.beam.usnews.com%2F52%2Fff7697afab3028ac1cf723ba57ad4b%2Fcollege-photo_9584.jpg,263,21,,54,29430,3.3,1739,1040,1040-1230,21-26,1947,Semester,Suburban,https://www.daemen.edu/
New Mexico State University,NM,Las Cruces,88003,public,https://www.usnews.com/dims4/USNEWS/f9d2e56/17177859217/thumbnail/200x150/quality/85/?url=https%3A%2F%2Fmedia.beam.usnews.com%2F11%2Fe41e2d49565505ca3995024f5b7e73%2Fcollege-photo_15275.jpg,263,17,,66,24917,3.5,11687,940,940-1160,17-23,1888,Semester,City,http://www.nmsu.edu
Old Dominion University,VA,Norfolk,23529,public,https://www.usnews.com/dims4/USNEWS/afbcce9/17177859217/thumbnail/200x150/quality/85/?url=https%3A%2F%2Fmedia.beam.usnews.com%2F09%2Faf147efe89bfbcc011769f8883070f%2Fcollege-photo_31648.jpg,263,18,,87,30652,3.3,19372,990,990-1200,18-24,1930,Semester,Urban,http://www.odu.edu
Shenandoah University,VA,Winchester,22601,private,https://www.usnews.com/dims4/USNEWS/0eeff18/17177859217/thumbnail/200x150/quality/85/?url=https%3A%2F%2Fmedia.beam.usnews.com%2F41%2Fa659110b98ab16498bcc73583b4be4%2Fcollege-photo_6073.jpg,263,21,,70,33242,3.5,2034,980,980-1190,21-26,1875,Semester,City,http://www.su.edu
University of Alabama--Huntsville,AL,Huntsville,35899,public,https://www.usnews.com/dims4/USNEWS/b98caf5/17177859217/thumbnail/200x150/quality/85/?url=https%3A%2F%2Fmedia.beam.usnews.com%2F5f%2F3e2efe29c31df901c9d4e88e3e31e1%2Fcollege-photo_30379.jpg,263,25,,81,23110,3.9,7671,1010,1010-1380,25-31,1969,Semester,City,https://www.uah.edu/
University of Alaska--Fairbanks,AK,Fairbanks,99775,public,https://www.usnews.com/dims4/USNEWS/187d1b4/17177859217/thumbnail/200x150/quality/85/?url=https%3A%2F%2Fmedia.beam.usnews.com%2F96%2F6ee7fde182addfa4ee33ed33132381%2Fcollege-photo_9352.jpg,263,17,,77,24970,,,1030,1030-1270,17-25,1917,Semester,Urban,http://www.uaf.edu
University of Missouri--Kansas City,MO,Kansas City,64110,public,https://www.usnews.com/dims4/USNEWS/ad8c18f/17177859217/thumbnail/200x150/quality/85/?url=https%3A%2F%2Fmedia.beam.usnews.com%2F97%2F785117f3a2b4aa263f529218af68bc%2Fcollege-photo_22581.jpg,263,21,,56,26134,3.4,11337,1030,1030-1340,21-28,1933,Semester,Urban,http://www.umkc.edu
University of North Dakota,ND,Grand Forks,58202,public,https://www.usnews.com/dims4/USNEWS/18995fc/17177859217/thumbnail/200x150/quality/85/?url=https%3A%2F%2Fmedia.beam.usnews.com%2F06%2F136ffd81847d942d00307046e98857%2F180516-coulee-01.jpg,263,21,,82,13842,3.4,10519,980,980-1230,21-27,1883,Semester,City,http://und.edu
University of South Dakota,SD,Vermillion,57069,public,https://www.usnews.com/dims4/USNEWS/855cd99/17177859217/thumbnail/200x150/quality/85/?url=https%3A%2F%2Fmedia.beam.usnews.com%2F40%2F283ba0f6130b61626510cf969ad3d7%2Fcollege-photo_5537.jpg,263,20,,86,12807,,7590,1030,1030-1260,20-25,1862,Semester,Rural,http://www.usd.edu
Mary Baldwin University,VA,Staunton,24401,private,https://www.usnews.com/dims4/USNEWS/3fe41c0/17177859217/thumbnail/200x150/quality/85/?url=https%3A%2F%2Fmedia.beam.usnews.com%2F6a%2Fae76ec29398a0722ad695842ec1f2b%2Fcollege-photo_36972.jpg,272,18,,100,31085,3.3,1327,950,950-1130,18-24,1842,Unknown,City,//www.marybaldwin.edu
Louisiana Tech University,LA,Ruston,71272,public,https://www.usnews.com/dims4/USNEWS/f52cee0/17177859217/thumbnail/200x150/quality/85/?url=https%3A%2F%2Fmedia.beam.usnews.com%2F09%2Ffce573bc2f51ec669b6c7dac7a74ef%2Fcollege-photo_34731.jpg,272,22,,63,19098,3.5,11185,870,870-970,22-28,1894,Quarter,Rural,http://www.latech.edu
Campbell University,NC,Buies Creek,27506,private,https://www.usnews.com/dims4/USNEWS/d73f90b/17177859217/thumbnail/200x150/quality/85/?url=https%3A%2F%2Fmedia.beam.usnews.com%2F6f%2F766070dfe992a4db92249e3ea8a722%2Fcollege-photo_7952.jpg,272,19,,76,33880,3.5,4242,1030,1030-1210,19-25,1887,Semester,Rural,http://www.campbell.edu
Keiser University,FL,Ft. Lauderdale,33309,private,https://www.usnews.com/dims4/USNEWS/c197b24/17177859217/thumbnail/200x150/quality/85/?url=https%3A%2F%2Fmedia.beam.usnews.com%2F09%2F9956410dc0c755009a67e3c14bbaac%2Fcollege-photo_32057.jpg,272,,,100,33120,,17892,,N/A,N/A,1977,Semester,Urban,https://www.keiseruniversity.edu/admissions/
South Dakota State University,SD,Brookings,57007,public,https://www.usnews.com/dims4/USNEWS/619817b/17177859217/thumbnail/200x150/quality/85/?url=https%3A%2F%2Fmedia.beam.usnews.com%2Fa1%2Fa62caf4617c6d3c133d4e08530dc98%2Fcollege-photo_20305.jpg,272,20,,92,12590,,10547,1010,1010-1260,20-26,1881,Semester,Rural,http://www.sdstate.edu
Tennessee Technological University,TN,Cookeville,38505,public,https://www.usnews.com/dims4/USNEWS/591bf24/17177859217/thumbnail/200x150/quality/85/?url=https%3A%2F%2Fmedia.beam.usnews.com%2F73%2F572381fc3b005a0cc3313798904bbf%2FStock_Campus_Drone_23AUG19_00008.jpg,272,21,,76,17373,3.6,9006,1050,1050-1260,21-27,1915,Semester,Rural,http://www.tntech.edu
University of Memphis,TN,Memphis,38152,public,https://www.usnews.com/dims4/USNEWS/115bbd5/17177859217/thumbnail/200x150/quality/85/?url=https%3A%2F%2Fmedia.beam.usnews.com%2Fb2%2F992db3d9a5e631ebb8793c423c53f1%2Fcollege-photo_14484.jpg,272,19,,84,16037,3.4,17233,970,970-1210,19-26,1912,Semester,Urban,http://www.memphis.edu
University of North Carolina--Greensboro,NC,Greensboro,27402,public,https://www.usnews.com/dims4/USNEWS/618d086/17177859217/thumbnail/200x150/quality/85/?url=https%3A%2F%2Fmedia.beam.usnews.com%2F12%2F0eb548d7adc5526dfe911b42ba1d14%2Fcollege-photo_17858.jpg,272,20,,84,22564,3.7,16641,990,990-1160,20-25,1891,Semester,Urban,http://www.uncg.edu/
University of the Incarnate Word,TX,San Antonio,78209,private,https://www.usnews.com/dims4/USNEWS/07ac5cd/17177859217/thumbnail/200x150/quality/85/?url=https%3A%2F%2Fmedia.beam.usnews.com%2F7c%2Fc68df62c55073a52a502a8940b626d%2Fcollege-photo_29250.jpg,272,17,,88,32576,3.5,5558,950,950-1140,17-22,1881,Semester,Urban,http://www.uiw.edu
Concordia University Wisconsin,WI,Mequon,53097,private,,281,20,,65,30352,3.4,3493,,N/A,20-26,1881,Unknown,Suburban,http://www.cuw.edu
Dallas Baptist University,TX,Dallas,75211,private,https://www.usnews.com/dims4/USNEWS/10b4753/17177859217/thumbnail/200x150/quality/85/?url=https%3A%2F%2Fmedia.beam.usnews.com%2F37%2Fb1098620bcc429bd0b5871c61b56ae%2Fcollege-photo_36119.jpg,281,20,,88,30320,3.5,3014,1090,1090-1270,20-24,1898,Unknown,Suburban,//www.dbu.edu
Florida Atlantic University,FL,Boca Raton,33431,public,https://www.usnews.com/dims4/USNEWS/514fcb9/17177859217/thumbnail/200x150/quality/85/?url=https%3A%2F%2Fmedia.beam.usnews.com%2Fd8%2F9a17240c5771252bec90f4b7293506%2Fcollege-photo_1284.jpg,281,21,,59,21595,3.9,24569,1080,1080-1240,21-26,1961,Semester,City,http://www.fau.edu
Gardner-Webb University,NC,Boiling Springs,28017,private,https://www.usnews.com/dims4/USNEWS/64e1596/17177859217/thumbnail/200x150/quality/85/?url=https%3A%2F%2Fmedia.beam.usnews.com%2Fa2%2F19a8c1465229d3a79f3e1ce4a62d03%2Fcollege-photo_22368.jpg,281,18,,48,31460,3.8,2028,970,970-1180,18-25,1905,Semester,Rural,http://www.gardner-webb.edu
North Carolina A&T State University,NC,Greensboro,27411,public,https://www.usnews.com/dims4/USNEWS/0a2cf70/17177859217/thumbnail/200x150/quality/85/?url=https%3A%2F%2Fmedia.beam.usnews.com%2Fa6%2F97fb4ce49473d9d4b7e79de234a7c4%2Fcollege-photo_12397.jpg,281,17,,61,20167,3.1,10629,950,950-1110,17-21,1891,Semester,Urban,http://www.ncat.edu
North Dakota State University,ND,Fargo,58108,public,https://www.usnews.com/dims4/USNEWS/1630df0/17177859217/thumbnail/200x150/quality/85/?url=https%3A%2F%2Fmedia.beam.usnews.com%2F52%2F64987e83b20baca0ce8437020a6bad%2Fcollege-photo_28974.jpg,281,21,,93,13628,3.4,11425,1083,1083-1275,21-26,1890,Semester,City,http://www.ndsu.edu
Regent University,VA,Virginia Beach,23464,private,https://www.usnews.com/dims4/USNEWS/3ed4427/17177859217/thumbnail/200x150/quality/85/?url=https%3A%2F%2Fmedia.beam.usnews.com%2Fd6%2Fcb38b4c9988902ffc7f21b056d2ded%2Fcollege-photo_25443.jpg,281,19,,84,19280,3.5,4646,950,950-1170,19-26,1978,Semester,Suburban,https://www.regent.edu/
Sam Houston State University,TX,Huntsville,77340,public,https://www.usnews.com/dims4/USNEWS/098d1c1/17177859217/thumbnail/200x150/quality/85/?url=https%3A%2F%2Fmedia.beam.usnews.com%2F76%2F3610c53996a80762a66acdf96d0c14%2Fcollege-photo_31448.jpg,281,19,,79,22933,,18473,1000,1000-1140,19-23,1879,Semester,Rural,http://www.shsu.edu
University of Missouri--St. Louis,MO,St. Louis,63121,public,https://www.usnews.com/dims4/USNEWS/0883b34/17177859217/thumbnail/200x150/quality/85/?url=https%3A%2F%2Fmedia.beam.usnews.com%2Fe5%2Fc39f9cc82cf2fc38215d70cd70a989%2Fcollege-photo_6729.jpg,281,21,,73,29295,3.5,13490,1020,1020-1230,21-27,1963,Semester,Urban,http://www.umsl.edu
University of North Florida,FL,Jacksonville,32224,public,https://www.usnews.com/dims4/USNEWS/ae0b4d5/17177859217/thumbnail/200x150/quality/85/?url=https%3A%2F%2Fmedia.beam.usnews.com%2F26%2Ff159e05387fe6448dca0a15167f149%2Fcollege-photo_22035.jpg,281,21,,61,20112,3.9,14494,1120,1120-1280,21-27,1965,Semester,Urban,http://www.unf.edu
University of North Texas,TX,Denton,76203,public,https://www.usnews.com/dims4/USNEWS/17bff64/17177859217/thumbnail/200x150/quality/85/?url=https%3A%2F%2Fmedia.beam.usnews.com%2F7e%2Fc5614ec3307139b6d81f1e82f9e0e4%2FNorth_Hurley_Administration_Building_Aerial-1001.jpg,281,20,,71,23911,,31347,1060,1060-1260,20-26,1890,Semester,City,http://www.unt.edu
William Carey University,MS,Hattiesburg,39401,private,https://www.usnews.com/dims4/USNEWS/1a3e2c3/17177859217/thumbnail/200x150/quality/85/?url=https%3A%2F%2Fmedia.beam.usnews.com%2F0a%2F5e5cb5061bcd2c1a662a570e24faff%2Fcollege-photo_32199.jpg,281,21,,68,12750,3.6,3191,930,930-1150,21-29,1892,Trimester,City,http://www.wmcarey.edu